{"type":"FeatureCollection","features":[{"type":"Feature","properties":{"km":1},"geometry":{"type":"MultiPolygon","coordinates":[[[[21.97705,56.38363],[21.97332,56.37751],[21.98323,56.37385],[21.98827,56.37034],[21.98945,56.35576],[22.00312,56.35732],[22.00579,56.36051],[22.001,56.36695],[22.00179,56.37505],[21.99437,56.37762],[21.9846,56.37859],[21.97705,56.38363]]],[[[22.07545,56.35914],[22.07156,56.35616],[22.06557,56.3545],[22.06771,56.3442],[22.07748,56.343],[22.08419,56.33816],[22.09501,56.34013],[22.08951,56.34498],[22.0912,56.35175],[22.08622,56.35414],[22.08359,56.35815],[22.07545,56.35914]]],[[[22.6251,56.31952],[22.61828,56.3181],[22.6044,56.31098],[22.59399,56.30839],[22.58728,56.30405],[22.59825,56.30215],[22.60368,56.29727],[22.6143,56.29424],[22.61766,56.29046],[22.6178,56.28665],[22.61471,56.28279],[22.60835,56.28003],[22.5987,56.27902],[22.59918,56.27678],[22.61059,56.27399],[22.61683,56.26867],[22.61506,56.26191],[22.60792,56.25846],[22.60938,56.25174],[22.61382,56.25157],[22.61567,56.2563],[22.6212,56.25951],[22.63326,56.26077],[22.64265,56.25772],[22.64648,56.25215],[22.65335,56.25178],[22.66476,56.24853],[22.67482,56.24909],[22.67017,56.25533],[22.66285,56.25705],[22.65788,56.26059],[22.65599,56.26865],[22.6579,56.27159],[22.66897,56.27845],[22.67576,56.28032],[22.68791,56.27932],[22.69452,56.2749],[22.70136,56.27542],[22.70323,56.27994],[22.71429,56.28724],[22.71179,56.28946],[22.69155,56.29104],[22.68543,56.29277],[22.66447,56.29165],[22.65918,56.29272],[22.65216,56.29713],[22.64947,56.30474],[22.64254,56.30646],[22.63756,56.31],[22.63732,56.31696],[22.63084,56.31734],[22.6251,56.31952]]],[[[23.11872,56.24227],[23.11113,56.23907],[23.09543,56.23761],[23.08985,56.2351],[23.08061,56.23346],[23.08676,56.22946],[23.09484,56.2284],[23.11855,56.23194],[23.1184,56.23867],[23.12035,56.24116],[23.11872,56.24227]]],[[[23.22225,56.22836],[23.20354,56.21679],[23.19229,56.21492],[23.19517,56.21225],[23.19649,56.20664],[23.20492,56.20849],[23.21621,56.20811],[23.22272,56.20501],[23.23162,56.20327],[23.23695,56.19836],[23.24493,56.20245],[23.25782,56.20253],[23.26432,56.19987],[23.26719,56.19697],[23.26768,56.19226],[23.26454,56.18842],[23.27376,56.19072],[23.28171,56.19593],[23.28853,56.19777],[23.30103,56.19672],[23.30632,56.19383],[23.3084,56.19047],[23.31644,56.19097],[23.29611,56.20141],[23.29364,56.20431],[23.27857,56.21321],[23.27453,56.21363],[23.26652,56.21089],[23.25644,56.21128],[23.24872,56.21483],[23.24617,56.22155],[23.22912,56.22751],[23.22225,56.22836]]],[[[22.41392,56.15865],[22.40611,56.15293],[22.39251,56.15096],[22.38904,56.14732],[22.3903,56.14599],[22.40161,56.14501],[22.40894,56.14286],[22.41927,56.14592],[22.41754,56.14904],[22.41848,56.15556],[22.41677,56.15801],[22.41392,56.15865]]],[[[25.2205,56.15876],[25.21727,56.15834],[25.21997,56.15495],[25.21979,56.14911],[25.21881,56.1435],[25.21547,56.13972],[25.20612,56.13666],[25.19129,56.13838],[25.19748,56.13046],[25.20698,56.12543],[25.20988,56.12832],[25.21052,56.13595],[25.21874,56.14148],[25.23573,56.14446],[25.24499,56.14459],[25.246,56.15087],[25.23885,56.15386],[25.23653,56.1568],[25.22889,56.15688],[25.2205,56.15876]]],[[[23.35805,56.13572],[23.34098,56.12215],[23.35353,56.11705],[23.3648,56.11644],[23.36877,56.11915],[23.36748,56.12476],[23.37132,56.13556],[23.35805,56.13572]]],[[[22.33782,56.08488],[22.33394,56.08168],[22.32718,56.08002],[22.32534,56.07617],[22.31672,56.07134],[22.32677,56.07103],[22.33289,56.06886],[22.34205,56.07056],[22.34267,56.08427],[22.33782,56.08488]]],[[[22.66721,56.05002],[22.66694,56.04619],[22.66423,56.04325],[22.65392,56.03999],[22.66166,56.03648],[22.67035,56.04039],[22.68518,56.041],[22.69451,56.03795],[22.69744,56.03417],[22.70869,56.03361],[22.71049,56.03992],[22.70675,56.0437],[22.70739,56.04865],[22.68704,56.04529],[22.67901,56.0452],[22.67213,56.04692],[22.66721,56.05002]]],[[[24.19093,55.96611],[24.1777,55.96276],[24.17049,55.96232],[24.16607,55.95986],[24.17207,55.95671],[24.17405,55.95289],[24.19607,55.95308],[24.19093,55.96611]]],[[[24.10201,55.95836],[24.09518,55.94893],[24.08797,55.94534],[24.08996,55.94152],[24.09517,55.94152],[24.09717,55.94376],[24.10358,55.94645],[24.11599,55.94667],[24.11679,55.94756],[24.12043,55.95744],[24.10201,55.95836]]],[[[25.28661,55.95707],[25.28241,55.95105],[25.28504,55.94586],[25.28979,55.94446],[25.29485,55.94014],[25.29531,55.9298],[25.2928,55.92669],[25.31084,55.92762],[25.31678,55.92598],[25.3209,55.92931],[25.32187,55.93446],[25.32681,55.93845],[25.32034,55.9365],[25.31153,55.93637],[25.30043,55.93941],[25.29733,55.94236],[25.29703,55.94551],[25.30938,55.95549],[25.3034,55.95645],[25.29217,55.95589],[25.28661,55.95707]]],[[[23.25673,55.86228],[23.25202,55.85798],[23.24569,55.85525],[23.23892,55.85408],[23.23704,55.84823],[23.24349,55.8449],[23.24556,55.8411],[23.25471,55.8425],[23.25943,55.84635],[23.26459,55.84795],[23.27297,55.84823],[23.27818,55.84713],[23.28464,55.8429],[23.2844,55.83459],[23.28923,55.83238],[23.29318,55.83464],[23.29308,55.84003],[23.2974,55.84388],[23.30009,55.84973],[23.29006,55.85214],[23.27958,55.85747],[23.27198,55.85833],[23.27035,55.86034],[23.26155,55.86074],[23.25673,55.86228]]],[[[21.55548,55.83305],[21.55363,55.83077],[21.54663,55.82771],[21.5543,55.82],[21.55397,55.81258],[21.55027,55.80801],[21.56232,55.80668],[21.56033,55.81293],[21.56328,55.8168],[21.57067,55.81987],[21.58022,55.82028],[21.57603,55.82357],[21.57536,55.82783],[21.5678,55.82745],[21.56255,55.82847],[21.55548,55.83305]]],[[[22.20536,55.78832],[22.20351,55.78515],[22.21512,55.78419],[22.22247,55.78025],[22.2242,55.77736],[22.23106,55.77544],[22.23477,55.77279],[22.24185,55.77469],[22.24902,55.7748],[22.25872,55.77179],[22.25836,55.77987],[22.24949,55.78221],[22.24536,55.7853],[22.23867,55.78341],[22.2319,55.78331],[22.22667,55.78436],[22.22257,55.78677],[22.20536,55.78832]]],[[[22.41781,55.79887],[22.41554,55.79592],[22.40927,55.79315],[22.40053,55.79258],[22.39267,55.78979],[22.38431,55.78945],[22.38131,55.78492],[22.36993,55.7805],[22.36497,55.77527],[22.36481,55.76965],[22.37624,55.7725],[22.37373,55.77539],[22.39118,55.77764],[22.39421,55.78127],[22.40668,55.7884],[22.41776,55.79034],[22.42907,55.79655],[22.41781,55.79887]]],[[[25.23646,55.79026],[25.23123,55.78896],[25.22406,55.78903],[25.22039,55.78637],[25.21476,55.78486],[25.21299,55.77926],[25.20726,55.77415],[25.20506,55.76766],[25.21538,55.76621],[25.21628,55.76979],[25.22118,55.77334],[25.2264,55.77486],[25.23358,55.77501],[25.23572,55.77971],[25.243,55.783],[25.23646,55.79026]]],[[[25.00232,55.8007],[24.9942,55.79493],[24.99718,55.78682],[24.99624,55.78121],[24.9938,55.77898],[24.98656,55.77634],[24.98654,55.7759],[24.99532,55.77627],[25.00047,55.77511],[25.00558,55.77215],[25.00902,55.76673],[25.01295,55.76468],[25.02138,55.76708],[25.02855,55.76702],[25.03763,55.76402],[25.04004,55.76445],[25.04168,55.76646],[25.0358,55.76988],[25.03197,55.77575],[25.03462,55.78561],[25.02474,55.78883],[25.01345,55.79926],[25.00232,55.8007]]],[[[22.42999,55.77365],[22.42175,55.77062],[22.42152,55.76635],[22.41511,55.75751],[22.41004,55.75475],[22.39859,55.75235],[22.40065,55.75058],[22.41229,55.74849],[22.41724,55.74428],[22.42464,55.74842],[22.42589,55.75675],[22.42894,55.76016],[22.42836,55.76464],[22.43218,55.76873],[22.42999,55.77365]]],[[[21.80342,55.73282],[21.79511,55.732],[21.78202,55.72412],[21.79163,55.72317],[21.79909,55.71791],[21.80556,55.71601],[21.80559,55.72252],[21.80972,55.72709],[21.80602,55.72905],[21.80342,55.73282]]],[[[23.28568,55.76453],[23.26707,55.75858],[23.26637,55.75341],[23.26048,55.74911],[23.26293,55.74575],[23.26224,55.74013],[23.25753,55.73651],[23.25119,55.7349],[23.25242,55.73311],[23.26163,55.73025],[23.26562,55.7296],[23.27944,55.73552],[23.28255,55.73958],[23.28768,55.74253],[23.3,55.74372],[23.30037,55.74485],[23.29083,55.74434],[23.28563,55.74544],[23.27918,55.74967],[23.27866,55.75618],[23.28568,55.76453]]],[[[24.83373,55.72941],[24.82771,55.72721],[24.83795,55.72197],[24.84968,55.71223],[24.85531,55.71511],[24.85347,55.72209],[24.85915,55.72722],[24.856,55.72859],[24.84086,55.72779],[24.83373,55.72941]]],[[[23.40525,55.73417],[23.40011,55.73235],[23.39136,55.73186],[23.3908,55.71658],[23.37227,55.70616],[23.37229,55.70459],[23.38979,55.70467],[23.40058,55.70158],[23.40539,55.69869],[23.4077,55.70409],[23.41479,55.70861],[23.41309,55.71557],[23.41622,55.7194],[23.42374,55.72236],[23.43568,55.72196],[23.43765,55.72309],[23.43639,55.72803],[23.41848,55.72817],[23.41207,55.73083],[23.40923,55.73419],[23.40525,55.73417]]],[[[24.01066,55.66868],[24.00231,55.66239],[23.99119,55.65768],[24.00311,55.65408],[24.01264,55.6478],[24.01422,55.6451],[24.02058,55.64532],[24.01066,55.66868]]],[[[24.30543,55.60744],[24.29747,55.60476],[24.2832,55.60614],[24.28238,55.60188],[24.29182,55.59063],[24.29859,55.59555],[24.31487,55.59708],[24.31256,55.60562],[24.30543,55.60744]]],[[[23.28722,55.61473],[23.29086,55.61071],[23.29055,55.60599],[23.28782,55.60306],[23.27995,55.59987],[23.28796,55.59542],[23.28878,55.59385],[23.28885,55.59003],[23.28769,55.58846],[23.2881,55.58801],[23.29676,55.5912],[23.30709,55.59059],[23.3121,55.5987],[23.31993,55.60503],[23.31388,55.61062],[23.29476,55.61477],[23.28722,55.61473]]],[[[24.51559,55.59775],[24.5036,55.59129],[24.51257,55.57912],[24.51975,55.58291],[24.52298,55.58739],[24.53135,55.59027],[24.52585,55.59434],[24.51559,55.59775]]],[[[24.79027,55.5873],[24.78863,55.58462],[24.78341,55.58173],[24.77348,55.58045],[24.78274,55.56759],[24.79619,55.5666],[24.79899,55.56793],[24.79279,55.57471],[24.7921,55.58011],[24.79736,55.58501],[24.79027,55.5873]]],[[[24.90907,55.5456],[24.90271,55.54498],[24.90102,55.54027],[24.89619,55.53671],[24.88625,55.53499],[24.88893,55.53115],[24.89725,55.53109],[24.90591,55.52878],[24.90804,55.5355],[24.91684,55.53903],[24.91734,55.54352],[24.90907,55.5456]]],[[[21.31107,55.48688],[21.30293,55.48446],[21.28238,55.484],[21.28617,55.48071],[21.28809,55.47581],[21.30067,55.47699],[21.30998,55.47383],[21.31272,55.47434],[21.3161,55.47688],[21.31771,55.48231],[21.32374,55.48671],[21.31107,55.48688]]],[[[23.46818,55.55591],[23.46549,55.54983],[23.45571,55.5408],[23.449,55.53898],[23.43751,55.53892],[23.42961,55.53732],[23.44388,55.53671],[23.45145,55.53382],[23.45467,55.53002],[23.45278,55.52327],[23.44492,55.51942],[23.42752,55.51821],[23.4232,55.51572],[23.42247,55.51123],[23.41699,55.50738],[23.42335,55.50539],[23.43175,55.49914],[23.4357,55.49939],[23.44513,55.50415],[23.45779,55.5042],[23.46536,55.50064],[23.46742,55.49459],[23.47138,55.49416],[23.47211,55.49888],[23.4772,55.50272],[23.47323,55.50382],[23.46843,55.50739],[23.46834,55.51436],[23.47462,55.51865],[23.48648,55.51982],[23.48645,55.52162],[23.48169,55.52295],[23.47689,55.52652],[23.47641,55.53281],[23.4815,55.5371],[23.49216,55.53961],[23.49327,55.54613],[23.50034,55.55065],[23.49434,55.55512],[23.48842,55.55307],[23.47971,55.55281],[23.46818,55.55591]],[[23.44103,55.51446],[23.44658,55.51359],[23.44901,55.51],[23.4451,55.50662],[23.43957,55.50592],[23.43479,55.50814],[23.43197,55.5115],[23.43589,55.51376],[23.44103,55.51446]]],[[[24.01141,55.51551],[24.00626,55.51237],[23.98885,55.50832],[23.98608,55.50248],[23.99914,55.50248],[24.00428,55.50136],[24.00942,55.49844],[24.0114,55.49462],[24.01496,55.4935],[24.02565,55.49709],[24.02723,55.49889],[24.02684,55.51236],[24.01141,55.51551]]],[[[21.1136,55.50328],[21.09852,55.46068],[21.09132,55.45107],[21.08815,55.44043],[21.09397,55.44192],[21.0925,55.44571],[21.09849,55.45034],[21.09834,55.45775],[21.10311,55.46281],[21.10309,55.46843],[21.10892,55.4807],[21.1183,55.48766],[21.11486,55.4914],[21.1145,55.49634],[21.11289,55.49675],[21.1136,55.50328]]],[[[24.25224,55.47931],[24.24748,55.4782],[24.24268,55.46788],[24.2466,55.46338],[24.24418,55.4562],[24.24773,55.45507],[24.2648,55.46559],[24.268,55.47075],[24.25852,55.47324],[24.25224,55.47931]]],[[[24.31981,55.47287],[24.31464,55.46861],[24.31691,55.45648],[24.32559,55.45421],[24.33551,55.4589],[24.3407,55.4654],[24.33759,55.4717],[24.31981,55.47287]]],[[[24.47589,55.4645],[24.47308,55.46069],[24.46395,55.45758],[24.45447,55.45807],[24.44504,55.46237],[24.43751,55.46127],[24.43946,55.45835],[24.44578,55.4581],[24.4509,55.45651],[24.45443,55.45425],[24.45636,55.45042],[24.46112,55.45153],[24.48008,55.45123],[24.47589,55.4645]]],[[[26.05263,55.45023],[26.05204,55.44642],[26.04825,55.44199],[26.03643,55.435],[26.03713,55.43319],[26.04371,55.43061],[26.05399,55.43067],[26.06117,55.43212],[26.05931,55.44945],[26.05263,55.45023]]],[[[24.779,55.45868],[24.76674,55.45831],[24.76706,55.45494],[24.77246,55.44794],[24.77911,55.44453],[24.78098,55.4389],[24.78532,55.43865],[24.79016,55.44378],[24.78087,55.4535],[24.779,55.45868]]],[[[23.47383,55.4589],[23.46637,55.45505],[23.45689,55.45456],[23.45095,55.45588],[23.44073,55.45157],[23.43957,55.44999],[23.44357,55.44664],[23.44403,55.44193],[23.44014,55.43787],[23.44017,55.4354],[23.44526,55.43834],[23.46219,55.44313],[23.46877,55.45327],[23.47583,55.45734],[23.47383,55.4589]]],[[[23.50989,55.45142],[23.50522,55.44601],[23.49696,55.44305],[23.49386,55.43788],[23.48566,55.4311],[23.49044,55.4273],[23.49128,55.42349],[23.49605,55.42126],[23.50244,55.41545],[23.50954,55.41593],[23.5024,55.41882],[23.4996,55.42173],[23.49914,55.42644],[23.50226,55.43027],[23.5113,55.43345],[23.51881,55.43348],[23.52475,55.43216],[23.52309,55.43889],[23.51275,55.44424],[23.50989,55.45142]]],[[[24.3407,55.41913],[24.33002,55.41759],[24.32407,55.41401],[24.32285,55.40975],[24.32439,55.40458],[24.3473,55.40631],[24.33984,55.4115],[24.3407,55.41913]]],[[[24.13306,55.43615],[24.12713,55.43594],[24.13106,55.43077],[24.13096,55.39887],[24.13767,55.39864],[24.14005,55.40268],[24.14006,55.40762],[24.14403,55.41121],[24.14562,55.41638],[24.13971,55.4202],[24.13777,55.42941],[24.13383,55.43234],[24.13306,55.43615]]],[[[21.03853,55.3588],[21.02953,55.34734],[21.0214,55.33479],[21.03155,55.33616],[21.04105,55.34088],[21.0533,55.3405],[21.05982,55.3483],[21.06046,55.35034],[21.05622,55.35428],[21.04713,55.35451],[21.03853,55.3588]]],[[[24.4634,55.37628],[24.45588,55.37406],[24.46096,55.37022],[24.46209,55.36595],[24.46837,55.36323],[24.47148,55.35918],[24.4793,55.35398],[24.48959,55.35776],[24.49787,55.3575],[24.50337,55.35568],[24.50311,55.36669],[24.47512,55.3668],[24.46767,55.37042],[24.4634,55.37628]]],[[[24.69688,55.35226],[24.696,55.34688],[24.6912,55.34286],[24.69864,55.34012],[24.71068,55.33017],[24.71628,55.33508],[24.71961,55.34494],[24.71093,55.34454],[24.70583,55.3457],[24.69688,55.35226]]],[[[24.29798,55.35725],[24.29596,55.35052],[24.29081,55.34761],[24.28568,55.34673],[24.28638,55.3337],[24.2792,55.32203],[24.28632,55.32561],[24.28713,55.32831],[24.29346,55.33278],[24.29627,55.33862],[24.30341,55.34556],[24.30231,55.35679],[24.29798,55.35725]]],[[[21.2642,55.278],[21.26496,55.26701],[21.27083,55.26175],[21.27295,55.25371],[21.2704,55.25073],[21.26456,55.24992],[21.26192,55.24829],[21.26394,55.24744],[21.26326,55.24585],[21.27036,55.24556],[21.28033,55.24938],[21.28224,55.25594],[21.29055,55.26106],[21.28819,55.26685],[21.28008,55.27027],[21.27784,55.27426],[21.2642,55.278]]],[[[26.70685,55.27123],[26.69561,55.26789],[26.69473,55.26072],[26.68616,55.25619],[26.68761,55.24851],[26.6838,55.24455],[26.70868,55.24603],[26.70837,55.253],[26.71053,55.25587],[26.71584,55.25868],[26.72655,55.26001],[26.73189,55.26326],[26.71965,55.26263],[26.71462,55.26387],[26.70971,55.2669],[26.70685,55.27123]]],[[[23.77037,55.23881],[23.7641,55.2352],[23.75708,55.2271],[23.7567,55.22441],[23.76221,55.22397],[23.77481,55.21928],[23.77834,55.21928],[23.77672,55.22871],[23.77238,55.23185],[23.77037,55.23881]]],[[[25.85631,55.20851],[25.85637,55.20132],[25.86135,55.19854],[25.86317,55.1956],[25.86256,55.19089],[25.85808,55.18736],[25.85811,55.17972],[25.85563,55.17684],[25.85556,55.17549],[25.85909,55.17544],[25.86877,55.18091],[25.87742,55.18954],[25.88714,55.1959],[25.87123,55.19997],[25.85631,55.20851]]],[[[22.56129,55.18225],[22.5547,55.17992],[22.54686,55.17961],[22.54504,55.17577],[22.54158,55.1737],[22.55266,55.17114],[22.55834,55.16604],[22.55662,55.15928],[22.54736,55.15513],[22.55063,55.15135],[22.5586,55.14807],[22.57551,55.1467],[22.57938,55.14832],[22.57331,55.15341],[22.57386,55.16016],[22.57686,55.16401],[22.58149,55.16609],[22.58142,55.16811],[22.57884,55.17437],[22.56738,55.1767],[22.56129,55.18225]]],[[[22.4443,55.17228],[22.43097,55.17188],[22.4279,55.17027],[22.43159,55.16605],[22.43138,55.16155],[22.43578,55.15936],[22.4391,55.15469],[22.43969,55.14975],[22.4344,55.14452],[22.42197,55.14144],[22.42475,55.14058],[22.42943,55.14131],[22.43906,55.1457],[22.44566,55.15747],[22.4502,55.16179],[22.45637,55.16457],[22.46224,55.16509],[22.46405,55.16893],[22.46007,55.17045],[22.45301,55.17036],[22.4443,55.17228]]],[[[23.23723,55.14253],[23.2241,55.13211],[23.21551,55.13026],[23.22463,55.12493],[23.23086,55.12721],[23.2383,55.12749],[23.23983,55.12929],[23.2432,55.13762],[23.23723,55.14253]]],[[[25.16768,55.04722],[25.16944,55.04024],[25.16501,55.03579],[25.1724,55.0346],[25.17196,55.03303],[25.17621,55.03097],[25.17292,55.02561],[25.15808,55.0262],[25.155,55.02803],[25.15164,55.03345],[25.1462,55.03462],[25.13982,55.03042],[25.13117,55.0287],[25.1323,55.02734],[25.14601,55.02789],[25.15335,55.0249],[25.16113,55.02348],[25.16878,55.01756],[25.17806,55.01433],[25.18032,55.01139],[25.19324,55.01193],[25.1934,55.01732],[25.18796,55.0185],[25.18297,55.02147],[25.17835,55.03724],[25.17221,55.04134],[25.17157,55.04629],[25.16768,55.04722]]],[[[25.90347,54.95324],[25.90182,54.95147],[25.90098,54.94183],[25.89613,54.93831],[25.88901,54.93617],[25.90868,54.93137],[25.91542,54.93374],[25.91908,54.93682],[25.9277,54.93759],[25.93809,54.94259],[25.92935,54.94744],[25.9146,54.94925],[25.90347,54.95324]]],[[[25.81377,54.91171],[25.81087,54.90793],[25.80451,54.90533],[25.79514,54.90502],[25.7886,54.90691],[25.78484,54.90135],[25.78979,54.89858],[25.79151,54.89339],[25.7985,54.89284],[25.80462,54.89028],[25.81021,54.89334],[25.81206,54.8996],[25.82295,54.90775],[25.81377,54.91171]]],[[[23.54136,54.53936],[23.53523,54.5344],[23.51983,54.53074],[23.52062,54.52895],[23.52793,54.531],[23.53992,54.52992],[23.54497,54.52702],[23.55162,54.51963],[23.55817,54.52146],[23.57092,54.52083],[23.57634,54.51883],[23.58328,54.51997],[23.58012,54.5267],[23.5743,54.52938],[23.57506,54.5305],[23.57429,54.5305],[23.5739,54.53072],[23.5739,54.53117],[23.57504,54.5323],[23.57233,54.53319],[23.57192,54.53521],[23.55415,54.53537],[23.54136,54.53936]],[[23.57313,54.53049],[23.57391,54.53027],[23.57314,54.53005],[23.57313,54.53049]]],[[[23.64633,54.50737],[23.6394,54.5051],[23.62859,54.50597],[23.62514,54.50304],[23.6298,54.49946],[23.63063,54.49362],[23.62375,54.48641],[23.61721,54.48459],[23.60872,54.48479],[23.60103,54.48207],[23.59798,54.47846],[23.59183,54.47575],[23.57987,54.47571],[23.57685,54.47008],[23.5711,54.46669],[23.55915,54.46552],[23.55258,54.46752],[23.54563,54.46795],[23.53834,54.46455],[23.52446,54.46405],[23.51369,54.46198],[23.50986,54.45994],[23.50646,54.45364],[23.49038,54.44504],[23.48701,54.43738],[23.48051,54.43309],[23.48053,54.43174],[23.4921,54.43067],[23.49714,54.42777],[23.49912,54.42328],[23.51185,54.42221],[23.51689,54.41931],[23.51887,54.41483],[23.52274,54.41372],[23.52734,54.41486],[23.54045,54.41379],[23.54196,54.41649],[23.54694,54.41943],[23.55887,54.4206],[23.56075,54.42442],[23.56419,54.42668],[23.56919,54.42827],[23.57535,54.42852],[23.57296,54.43592],[23.57906,54.44223],[23.58559,54.44405],[23.59253,54.44408],[23.59794,54.44275],[23.59905,54.44792],[23.60325,54.4513],[23.60093,54.45197],[23.59825,54.45039],[23.59593,54.4515],[23.60016,54.45219],[23.59705,54.4551],[23.6135,54.46886],[23.61229,54.47447],[23.61802,54.48055],[23.62381,54.48012],[23.6292,54.48126],[23.63535,54.48352],[23.64109,54.48871],[23.65073,54.48986],[23.65113,54.48806],[23.65383,54.4883],[23.65734,54.48314],[23.65893,54.47775],[23.65626,54.47438],[23.6578,54.47438],[23.6597,54.4782],[23.66277,54.48001],[23.66001,54.48742],[23.66034,54.49416],[23.65759,54.49954],[23.64633,54.50737]]],[[[24.53317,54.04214],[24.5278,54.04037],[24.52584,54.03611],[24.52084,54.03321],[24.51587,54.03211],[24.50481,54.03328],[24.50136,54.0315],[24.49866,54.02881],[24.49858,54.0223],[24.49127,54.01694],[24.48629,54.01583],[24.47219,54.01656],[24.4653,54.01434],[24.45729,54.0146],[24.45121,54.01664],[24.44546,54.01397],[24.43592,54.01378],[24.43056,54.012],[24.43044,54.0001],[24.43803,53.99692],[24.44254,53.99084],[24.46498,53.98559],[24.47516,53.97634],[24.48391,53.97496],[24.48921,53.97201],[24.49372,53.96638],[24.50329,53.97061],[24.50871,53.97732],[24.51907,53.9829],[24.53167,53.98441],[24.53629,53.98799],[24.54357,53.99088],[24.55235,53.99196],[24.56195,53.99663],[24.57302,53.99793],[24.57802,54.00082],[24.58529,54.00259],[24.60035,54.01554],[24.60765,54.01955],[24.60845,54.02157],[24.60158,54.02138],[24.59512,54.02321],[24.59059,54.02682],[24.58987,54.0302],[24.57463,54.03139],[24.56703,54.03435],[24.5521,54.03038],[24.5399,54.03155],[24.53385,54.03585],[24.53317,54.04214]]],[[[24.44113,53.96546],[24.44033,53.96187],[24.43534,53.95807],[24.43037,53.95651],[24.42237,53.95609],[24.42117,53.95115],[24.42725,53.94978],[24.43407,53.94616],[24.43633,53.94346],[24.44506,53.94096],[24.47023,53.94423],[24.4714,53.94715],[24.46807,53.95592],[24.45552,53.95777],[24.44985,53.96138],[24.44723,53.96544],[24.44113,53.96546]]]]}},{"type":"Feature","properties":{"km":2},"geometry":{"type":"MultiPolygon","coordinates":[[[[22.6219,56.30736],[22.61595,56.30437],[22.62827,56.29889],[22.63378,56.29154],[22.63324,56.2839],[22.62703,56.27709],[22.63254,56.26974],[22.63983,56.26892],[22.64402,56.27616],[22.65585,56.28392],[22.64974,56.28543],[22.64193,56.28938],[22.63473,56.29874],[22.62734,56.30225],[22.6219,56.30736]]],[[[23.61266,54.47537],[23.605,54.46995],[23.59077,54.46653],[23.58388,54.46112],[23.57466,54.45772],[23.55771,54.45653],[23.54921,54.45785],[23.54037,54.45557],[23.52419,54.45461],[23.51734,54.44717],[23.50393,54.44015],[23.50281,54.437],[23.51058,54.43187],[23.5245,54.42788],[23.52994,54.42386],[23.54799,54.42909],[23.55756,54.43474],[23.5598,54.44149],[23.5659,54.44735],[23.57703,54.45189],[23.58666,54.45304],[23.5924,54.45778],[23.61044,54.46593],[23.6135,54.46886],[23.61266,54.47537]]],[[[24.528,54.02554],[24.51461,54.02313],[24.50763,54.01372],[24.49459,54.00794],[24.48771,54.00684],[24.47513,54.00712],[24.46672,54.00535],[24.45186,54.00608],[24.44612,54.00476],[24.45443,53.99754],[24.47041,53.99433],[24.47875,53.99025],[24.48554,53.98416],[24.49542,53.9812],[24.49927,53.98478],[24.51116,53.99057],[24.52339,53.99299],[24.53566,53.99855],[24.54637,54.00075],[24.55404,54.00431],[24.57471,54.0096],[24.58396,54.01697],[24.57793,54.02194],[24.56651,54.02379],[24.5535,54.02138],[24.5432,54.02143],[24.528,54.02554]]]]}},{"type":"Feature","properties":{"km":3},"geometry":{"type":"MultiPolygon","coordinates":[[[[23.54701,54.44751],[23.53469,54.44634],[23.52437,54.43844],[23.5325,54.43532],[23.53827,54.43669],[23.54324,54.43986],[23.54701,54.44751]]],[[[24.52672,54.01544],[24.52092,54.00917],[24.51247,54.00382],[24.49945,53.99938],[24.48723,53.99786],[24.4929,53.99379],[24.50516,53.99891],[24.51625,54.00133],[24.52967,54.00689],[24.53999,54.00909],[24.54766,54.0122],[24.53471,54.01338],[24.52672,54.01544]]]]}}]}