{"type":"Feature","properties":{},"geometry":{"type":"MultiPolygon","coordinates":[[[[20.98231,55.27781],[20.95377,55.28083],[20.99367,55.32666],[21.04722,55.40516],[21.06891,55.45029],[21.09798,55.53756],[21.10595,55.611],[21.10363,55.66504],[21.09409,55.72227],[21.07674,55.7271],[21.08194,55.72649],[21.09109,55.72367],[21.10207,55.71939],[21.13528,55.67832],[21.12895,55.65651],[21.13571,55.6122],[21.12838,55.58487],[21.12918,55.55304],[21.11527,55.52015],[21.11998,55.51387],[21.11286,55.49704],[21.1182,55.48774],[21.10897,55.48038],[21.09004,55.43886],[21.11107,55.42062],[21.08608,55.40928],[21.0946,55.40241],[21.07568,55.39142],[21.07942,55.3845],[21.05502,55.36556],[21.05385,55.35593],[21.06033,55.3502],[21.05254,55.33632],[21.05819,55.33107],[21.0153,55.31416],[21.00772,55.3064],[21.01118,55.3017],[20.99804,55.29704],[21.00048,55.28894],[20.98231,55.27781]]],[[[21.26757,55.24628],[21.26202,55.24866],[21.27282,55.25478],[21.26453,55.27797],[21.28017,55.27331],[21.29267,55.27312],[21.30444,55.2607],[21.29657,55.25314],[21.26757,55.24628]]],[[[21.28647,55.29449],[21.29105,55.30196],[21.28454,55.3193],[21.27073,55.32834],[21.25018,55.33112],[21.24839,55.33528],[21.30036,55.34556],[21.34883,55.34333],[21.36282,55.33925],[21.38307,55.3246],[21.38202,55.29504],[21.37467,55.28861],[21.35407,55.28535],[21.30746,55.26267],[21.30346,55.26296],[21.30131,55.26614],[21.30345,55.26447],[21.30604,55.26336],[21.3031,55.26543],[21.3061,55.26506],[21.31016,55.26536],[21.30196,55.26606],[21.28906,55.27607],[21.29258,55.28788],[21.28647,55.29449]]],[[[21.25253,55.35508],[21.25849,55.36069],[21.26869,55.35786],[21.25722,55.36525],[21.24064,55.36068],[21.23586,55.3432],[21.20427,55.34448],[21.18929,55.34082],[21.21952,55.3742],[21.23136,55.39783],[21.24966,55.41469],[21.25177,55.46494],[21.24699,55.4931],[21.23459,55.50507],[21.2336,55.51603],[21.21002,55.53076],[21.20163,55.56893],[21.17463,55.59561],[21.14329,55.66329],[21.16338,55.64347],[21.16509,55.64618],[21.14782,55.66445],[21.13943,55.68754],[21.13284,55.69035],[21.12439,55.70201],[21.1289,55.70372],[21.12184,55.70548],[21.1439,55.71206],[21.14878,55.71454],[21.15511,55.71447],[21.16074,55.7153],[21.16833,55.71804],[21.1684,55.7194],[21.16263,55.72492],[21.16413,55.72728],[21.16155,55.73136],[21.15616,55.73285],[21.15043,55.73283],[21.14969,55.73497],[21.1457,55.73559],[21.14675,55.73756],[21.14296,55.74301],[21.14522,55.74627],[21.14378,55.74935],[21.14062,55.75207],[21.139,55.75195],[21.13914,55.75015],[21.13666,55.75142],[21.13656,55.75187],[21.13908,55.75275],[21.1395,55.75348],[21.13473,55.75762],[21.14023,55.75939],[21.13673,55.7635],[21.14357,55.76747],[21.14204,55.77046],[21.14625,55.77074],[21.1452,55.76873],[21.147,55.76771],[21.14881,55.76752],[21.17113,55.77637],[21.1739,55.78329],[21.17176,55.78558],[21.171,55.77648],[21.14862,55.76764],[21.14644,55.77086],[21.14193,55.77071],[21.13633,55.76342],[21.13915,55.75916],[21.13427,55.75749],[21.13636,55.75116],[21.14465,55.74638],[21.14245,55.74337],[21.14508,55.73562],[21.15011,55.73265],[21.16107,55.73113],[21.16196,55.72505],[21.16751,55.71794],[21.14844,55.71488],[21.14277,55.71214],[21.13167,55.70983],[21.12489,55.70655],[21.12203,55.70618],[21.11951,55.70977],[21.12444,55.70933],[21.10566,55.72164],[21.07735,55.72927],[21.0857,55.73523],[21.06761,55.79386],[21.04907,55.91782],[21.07068,55.97406],[21.07231,56.04002],[21.06466,56.06918],[21.14334,56.08002],[21.14593,56.08414],[21.1597,56.08624],[21.18055,56.07499],[21.20175,56.07672],[21.21533,56.10212],[21.22513,56.10343],[21.22058,56.10876],[21.23551,56.11579],[21.23888,56.12289],[21.22644,56.14834],[21.2308,56.16233],[21.25528,56.16531],[21.27926,56.17449],[21.28256,56.18486],[21.29843,56.19175],[21.32939,56.21847],[21.33815,56.21737],[21.35384,56.22469],[21.37929,56.22805],[21.41732,56.24201],[21.43147,56.24069],[21.45255,56.24868],[21.46518,56.26051],[21.4671,56.27071],[21.49165,56.29106],[21.50276,56.2955],[21.50251,56.2924],[21.50959,56.29316],[21.51467,56.28945],[21.54694,56.29771],[21.55737,56.30468],[21.56116,56.3162],[21.57652,56.31461],[21.58683,56.32274],[21.61104,56.32519],[21.65978,56.31855],[21.67324,56.31134],[21.72499,56.31372],[21.74035,56.32984],[21.75701,56.33728],[21.7876,56.34366],[21.8026,56.35261],[21.80798,56.36238],[21.8241,56.36311],[21.83566,56.37162],[21.86648,56.36606],[21.87297,56.36145],[21.91814,56.36813],[21.91935,56.37203],[21.94505,56.37486],[21.95421,56.3816],[21.96954,56.37665],[21.97821,56.38514],[21.97758,56.39358],[21.99317,56.40616],[21.9917,56.41362],[22.01406,56.41421],[22.0153,56.42428],[22.03353,56.42492],[22.04862,56.41697],[22.05134,56.42138],[22.06224,56.41898],[22.07143,56.42535],[22.08526,56.42263],[22.08891,56.42811],[22.10244,56.42595],[22.1254,56.43235],[22.16575,56.41963],[22.21093,56.42289],[22.21569,56.40733],[22.21802,56.40601],[22.22632,56.40377],[22.23311,56.39482],[22.22601,56.38518],[22.22151,56.36938],[22.21367,56.36574],[22.21026,56.35783],[22.21239,56.35571],[22.22373,56.35165],[22.23269,56.34472],[22.23693,56.34364],[22.23933,56.33391],[22.24463,56.32991],[22.26166,56.32753],[22.26172,56.32204],[22.26452,56.3203],[22.25925,56.31188],[22.25973,56.31073],[22.2751,56.30289],[22.27878,56.30146],[22.28305,56.30115],[22.28396,56.29925],[22.28518,56.29861],[22.32576,56.29982],[22.3304,56.28738],[22.33642,56.28547],[22.33373,56.28382],[22.33354,56.28256],[22.36738,56.28269],[22.36849,56.27491],[22.37273,56.27197],[22.38885,56.27096],[22.40367,56.27143],[22.41592,56.26312],[22.40356,56.27173],[22.37286,56.27223],[22.36915,56.27477],[22.37035,56.27972],[22.36745,56.28307],[22.3342,56.28274],[22.33751,56.28529],[22.33096,56.2875],[22.33173,56.29475],[22.33023,56.29836],[22.32646,56.30002],[22.28528,56.29894],[22.28363,56.30137],[22.2601,56.31109],[22.26515,56.32019],[22.26217,56.32777],[22.24509,56.33012],[22.2379,56.34359],[22.22346,56.35262],[22.21121,56.3576],[22.22215,56.36899],[22.23367,56.39464],[22.2272,56.40376],[22.21636,56.4075],[22.21822,56.41026],[22.21725,56.41196],[22.24386,56.39973],[22.26446,56.40465],[22.27862,56.40367],[22.28614,56.41036],[22.29728,56.40703],[22.31151,56.41],[22.319,56.40834],[22.32186,56.40204],[22.34924,56.39383],[22.36487,56.40194],[22.39063,56.40082],[22.40445,56.40736],[22.42312,56.41004],[22.44766,56.40286],[22.47542,56.40407],[22.49389,56.39627],[22.53012,56.39367],[22.53809,56.389],[22.56432,56.38753],[22.58024,56.39054],[22.58889,56.38429],[22.61632,56.38254],[22.63954,56.36431],[22.66181,56.36189],[22.68119,56.35158],[22.69745,56.35321],[22.7114,56.36509],[22.73006,56.3731],[22.74979,56.37222],[22.75688,56.36724],[22.77476,56.36459],[22.78496,56.36736],[22.83867,56.36494],[22.8997,56.37416],[22.91917,56.37902],[22.92861,56.38811],[22.92053,56.39911],[22.9365,56.40263],[22.94036,56.41451],[22.96917,56.41389],[22.9776,56.4057],[23.00225,56.40642],[23.0189,56.37062],[23.0051,56.36846],[23.02694,56.33115],[23.04523,56.32004],[23.07042,56.32436],[23.0851,56.31744],[23.09325,56.30464],[23.11518,56.30806],[23.11241,56.3129],[23.18411,56.33742],[23.17242,56.35454],[23.18135,56.3584],[23.17041,56.36689],[23.28287,56.3719],[23.30425,56.37846],[23.30645,56.38305],[23.38798,56.37892],[23.41846,56.3705],[23.43904,56.35172],[23.48127,56.34769],[23.5106,56.3358],[23.54494,56.3321],[23.57243,56.33847],[23.58276,56.34545],[23.63008,56.35993],[23.7648,56.37332],[23.78061,56.36771],[23.76222,56.3367],[23.76783,56.33289],[23.76682,56.32365],[23.78148,56.32052],[23.79522,56.33913],[23.80361,56.34211],[23.82886,56.33808],[23.91262,56.33869],[23.91515,56.33112],[24.019,56.32976],[24.02263,56.31071],[24.04924,56.29934],[24.04601,56.27966],[24.09783,56.27727],[24.09622,56.27106],[24.1189,56.26176],[24.1146,56.25091],[24.12146,56.2489],[24.15469,56.25377],[24.17679,56.25089],[24.20105,56.26706],[24.2404,56.27803],[24.25764,56.27694],[24.26967,56.28319],[24.29013,56.2856],[24.28574,56.30064],[24.29544,56.29846],[24.31632,56.30104],[24.33992,56.29591],[24.35774,56.27232],[24.38006,56.27913],[24.39215,56.27842],[24.42317,56.26106],[24.45415,56.25816],[24.46174,56.26633],[24.48375,56.26947],[24.51924,56.28126],[24.56474,56.28922],[24.5795,56.28824],[24.58333,56.30559],[24.57675,56.32315],[24.58798,56.33253],[24.60727,56.33589],[24.61405,56.34427],[24.62514,56.34688],[24.62931,56.3756],[24.68841,56.37624],[24.70509,56.38767],[24.70135,56.4035],[24.74151,56.40031],[24.76169,56.40435],[24.77564,56.39935],[24.80375,56.41168],[24.80567,56.4161],[24.79975,56.41826],[24.80642,56.42175],[24.82184,56.41796],[24.82483,56.41039],[24.86233,56.41568],[24.85141,56.43577],[24.86482,56.44076],[24.87223,56.44928],[24.8787,56.44934],[24.88532,56.45025],[24.88958,56.44664],[24.89715,56.44807],[24.90026,56.44667],[24.90114,56.44652],[24.90317,56.4467],[24.90374,56.44745],[24.90527,56.44723],[24.91836,56.44068],[24.91907,56.43449],[24.90238,56.42048],[24.90563,56.41273],[24.91369,56.40383],[24.92667,56.40105],[24.9423,56.37513],[24.94996,56.3772],[24.95524,56.37],[24.96949,56.36528],[24.97265,56.3523],[24.9666,56.34374],[24.97332,56.31024],[24.98694,56.30586],[24.99259,56.29844],[25.016,56.29172],[25.01911,56.27694],[25.03308,56.27226],[25.04173,56.27414],[25.04192,56.26869],[25.05659,56.2657],[25.05605,56.25506],[25.0637,56.24972],[25.05685,56.24461],[25.06901,56.23871],[25.06301,56.22661],[25.07514,56.21833],[25.07024,56.20992],[25.07541,56.19641],[25.08594,56.19658],[25.09198,56.18606],[25.12227,56.18485],[25.15022,56.17456],[25.16641,56.17392],[25.19997,56.17628],[25.2146,56.18715],[25.23374,56.19222],[25.23867,56.18667],[25.2486,56.18499],[25.25453,56.17319],[25.27001,56.17061],[25.27969,56.15831],[25.31486,56.14492],[25.33735,56.15417],[25.40408,56.15822],[25.40257,56.14851],[25.41956,56.14519],[25.43151,56.15439],[25.45496,56.15266],[25.45403,56.14706],[25.47976,56.14281],[25.50474,56.14454],[25.50843,56.15811],[25.53609,56.1648],[25.55131,56.16195],[25.56544,56.13993],[25.60199,56.1344],[25.6506,56.13493],[25.67312,56.14937],[25.68456,56.14411],[25.67632,56.12993],[25.69961,56.11949],[25.69312,56.1038],[25.69943,56.10115],[25.69555,56.09496],[25.68713,56.09296],[25.68786,56.08646],[25.73671,56.07683],[25.76076,56.06364],[25.82008,56.05477],[25.83521,56.03264],[25.85035,56.0305],[25.85869,56.02253],[25.85968,56.01483],[25.84892,56.00824],[25.86029,55.99974],[25.89855,55.99942],[25.9008,55.98592],[25.9005,55.99701],[25.94482,55.98787],[25.94599,55.98458],[25.97439,55.98158],[25.99995,55.96285],[26.01036,55.96702],[26.04595,55.95423],[26.04528,55.94503],[26.05498,55.93479],[26.08999,55.90091],[26.12028,55.87946],[26.15115,55.87679],[26.17323,55.86537],[26.18391,55.8685],[26.20374,55.85889],[26.22939,55.83821],[26.2356,55.81979],[26.22985,55.81988],[26.22278,55.81203],[26.22869,55.80979],[26.23115,55.81287],[26.2578,55.78338],[26.25276,55.7811],[26.26146,55.77716],[26.25381,55.7773],[26.25579,55.7746],[26.29114,55.75446],[26.29185,55.74313],[26.35003,55.74239],[26.36554,55.73154],[26.37563,55.7094],[26.38583,55.70453],[26.40322,55.71135],[26.45722,55.70632],[26.49099,55.69596],[26.4929,55.68797],[26.51235,55.68731],[26.51993,55.67898],[26.54249,55.67679],[26.55905,55.67938],[26.56716,55.66696],[26.57001,55.67206],[26.56728,55.68],[26.57552,55.67594],[26.59745,55.67465],[26.61879,55.68114],[26.63036,55.68067],[26.63091,55.65886],[26.63765,55.65415],[26.6318,55.64832],[26.61973,55.65097],[26.59584,55.64705],[26.57859,55.66142],[26.5728,55.66095],[26.57738,55.64977],[26.56218,55.64529],[26.55212,55.63177],[26.53157,55.6293],[26.51575,55.62178],[26.49776,55.62194],[26.49418,55.61617],[26.48257,55.61583],[26.48877,55.60802],[26.49689,55.6097],[26.50909,55.60425],[26.5304,55.60441],[26.54646,55.61014],[26.55443,55.60705],[26.55619,55.61119],[26.55774,55.60811],[26.55813,55.61065],[26.5712,55.61089],[26.58389,55.62024],[26.58885,55.6117],[26.56375,55.60859],[26.59047,55.60527],[26.5998,55.60753],[26.61612,55.60322],[26.62721,55.59473],[26.61952,55.58477],[26.61948,55.59232],[26.60916,55.59081],[26.61173,55.59393],[26.6075,55.59494],[26.61072,55.59936],[26.59925,55.59787],[26.61529,55.57656],[26.62388,55.57373],[26.62375,55.56586],[26.6198,55.56307],[26.61316,55.5656],[26.58635,55.54624],[26.58616,55.53809],[26.56509,55.53375],[26.55822,55.52715],[26.54451,55.52664],[26.52722,55.53681],[26.50236,55.5227],[26.50352,55.51561],[26.51408,55.51504],[26.53963,55.49384],[26.53177,55.49568],[26.52081,55.49066],[26.50712,55.49375],[26.51647,55.48808],[26.53184,55.48661],[26.53479,55.48427],[26.52871,55.48527],[26.52854,55.48175],[26.53429,55.48011],[26.53621,55.48281],[26.54357,55.46844],[26.55695,55.46343],[26.54191,55.45065],[26.56024,55.43809],[26.54436,55.44254],[26.53873,55.43952],[26.55936,55.41109],[26.548,55.40786],[26.55415,55.38883],[26.511,55.37945],[26.5034,55.36982],[26.49498,55.36891],[26.48786,55.37303],[26.47481,55.37007],[26.47199,55.35672],[26.43993,55.34794],[26.45313,55.33974],[26.47541,55.34149],[26.49466,55.33428],[26.51407,55.33342],[26.5155,55.32997],[26.52699,55.3326],[26.54862,55.32897],[26.55439,55.32186],[26.56371,55.31926],[26.58365,55.32636],[26.58847,55.31908],[26.59395,55.32236],[26.60724,55.31959],[26.61796,55.32682],[26.61428,55.33189],[26.62678,55.3349],[26.63099,55.33314],[26.62474,55.32667],[26.63244,55.32192],[26.64066,55.32475],[26.6439,55.33435],[26.66074,55.33527],[26.66432,55.33893],[26.68343,55.33142],[26.70859,55.32906],[26.72015,55.32178],[26.75455,55.3238],[26.7777,55.31848],[26.79197,55.3212],[26.79403,55.31792],[26.81426,55.31529],[26.81487,55.30909],[26.8321,55.30689],[26.83552,55.28563],[26.82866,55.27603],[26.7982,55.27364],[26.79873,55.26601],[26.78582,55.26741],[26.78036,55.2599],[26.76107,55.2582],[26.74868,55.25149],[26.74539,55.25475],[26.73141,55.24516],[26.72593,55.23807],[26.72971,55.21562],[26.70069,55.20054],[26.69362,55.20559],[26.67492,55.19738],[26.68709,55.17766],[26.7004,55.1785],[26.70584,55.17194],[26.69421,55.16684],[26.67792,55.17038],[26.67666,55.15899],[26.66869,55.15597],[26.65357,55.16099],[26.61789,55.14667],[26.59038,55.1539],[26.53998,55.14324],[26.51689,55.16094],[26.48038,55.14869],[26.47752,55.13772],[26.46112,55.12856],[26.45743,55.13652],[26.45077,55.13298],[26.42366,55.14055],[26.4176,55.13626],[26.41385,55.14097],[26.39618,55.13387],[26.39272,55.14282],[26.37076,55.14969],[26.35468,55.15057],[26.35,55.14646],[26.32353,55.14493],[26.32918,55.13681],[26.30217,55.13351],[26.31194,55.12905],[26.30189,55.1252],[26.2608,55.12135],[26.2293,55.10561],[26.2714,55.07759],[26.26147,55.07408],[26.2633,55.06635],[26.2462,55.07008],[26.23701,55.06455],[26.2359,55.05874],[26.24524,55.05653],[26.24504,55.05186],[26.2378,55.05104],[26.24184,55.04039],[26.21678,55.01404],[26.20884,55.0124],[26.20851,54.99741],[26.18471,54.99044],[26.15619,54.99237],[26.13914,54.98536],[26.11592,54.98858],[26.11868,54.98],[26.10984,54.97194],[26.07619,54.97011],[26.0727,54.96304],[26.08077,54.9547],[26.05535,54.94972],[26.05265,54.94746],[26.06191,54.94161],[26.02325,54.94306],[25.99033,54.95172],[25.99042,54.95789],[25.98395,54.95783],[25.97897,54.95383],[25.94382,54.94749],[25.90838,54.93139],[25.88361,54.93667],[25.87793,54.92982],[25.85782,54.9276],[25.85322,54.91916],[25.86042,54.91848],[25.85385,54.91143],[25.85922,54.9058],[25.85332,54.89679],[25.8136,54.87744],[25.81649,54.87303],[25.80963,54.87213],[25.80975,54.86777],[25.78156,54.85735],[25.77763,54.8483],[25.78363,54.83942],[25.77185,54.82299],[25.75597,54.82226],[25.74411,54.82749],[25.74196,54.84125],[25.74751,54.85612],[25.7462,54.86493],[25.74299,54.86614],[25.73874,54.86562],[25.72543,54.86097],[25.72383,54.8588],[25.71921,54.85771],[25.70971,54.85968],[25.70291,54.86396],[25.70311,54.87832],[25.69394,54.88641],[25.69341,54.89576],[25.6852,54.89799],[25.67858,54.89786],[25.66389,54.89395],[25.65706,54.89765],[25.64202,54.90016],[25.63655,54.89957],[25.62272,54.88696],[25.61706,54.88756],[25.58925,54.88185],[25.54889,54.85978],[25.52738,54.83344],[25.5242,54.83375],[25.5194,54.83736],[25.51588,54.83812],[25.50257,54.8353],[25.49813,54.83668],[25.47742,54.83847],[25.45269,54.85347],[25.4298,54.86155],[25.42275,54.86091],[25.41275,54.86256],[25.40175,54.86218],[25.39031,54.85922],[25.37507,54.85088],[25.37369,54.84014],[25.37557,54.83637],[25.35648,54.82071],[25.35632,54.81811],[25.35939,54.8138],[25.35755,54.82051],[25.3756,54.83358],[25.37636,54.85092],[25.40254,54.86184],[25.42237,54.86037],[25.42819,54.86118],[25.44184,54.8573],[25.47751,54.83781],[25.50192,54.83465],[25.51669,54.8375],[25.5226,54.83356],[25.52734,54.83272],[25.54972,54.85939],[25.58935,54.88133],[25.62182,54.88623],[25.64221,54.8996],[25.66299,54.89347],[25.68109,54.89743],[25.69178,54.8959],[25.69281,54.88587],[25.70194,54.87854],[25.70187,54.86403],[25.71041,54.85853],[25.72167,54.85732],[25.74485,54.8645],[25.74633,54.85625],[25.74107,54.84197],[25.74188,54.83225],[25.74388,54.82658],[25.75127,54.82298],[25.7337,54.80035],[25.74949,54.76449],[25.74457,54.71513],[25.73534,54.70157],[25.73984,54.68611],[25.7303,54.6828],[25.74863,54.63845],[25.74601,54.62668],[25.75678,54.61941],[25.75268,54.61018],[25.76262,54.5769],[25.7467,54.5625],[25.68238,54.53642],[25.65692,54.50857],[25.63893,54.47256],[25.62052,54.46941],[25.60229,54.46085],[25.60606,54.45643],[25.61724,54.45902],[25.6277,54.45514],[25.61967,54.45057],[25.63292,54.42354],[25.60512,54.39641],[25.59051,54.40144],[25.58567,54.39143],[25.59366,54.37537],[25.56221,54.36582],[25.5559,54.34238],[25.53194,54.34182],[25.53203,54.33834],[25.53603,54.3317],[25.54839,54.3317],[25.55233,54.31499],[25.58723,54.3223],[25.58932,54.31592],[25.62018,54.31036],[25.63035,54.31821],[25.64254,54.31082],[25.66195,54.32223],[25.67716,54.32381],[25.68432,54.31919],[25.71063,54.29691],[25.69981,54.29061],[25.70779,54.28546],[25.69871,54.28053],[25.71279,54.27154],[25.72138,54.27633],[25.74046,54.27131],[25.74384,54.27317],[25.7569,54.2517],[25.77455,54.23752],[25.78468,54.23801],[25.78573,54.23363],[25.75013,54.22192],[25.75826,54.20933],[25.77779,54.19956],[25.78049,54.1936],[25.77048,54.1832],[25.7788,54.17775],[25.7791,54.16783],[25.78858,54.1652],[25.7853,54.15458],[25.77961,54.15463],[25.78232,54.16029],[25.77405,54.16193],[25.76544,54.15891],[25.74084,54.16112],[25.73935,54.15619],[25.7346,54.15698],[25.73576,54.16162],[25.70363,54.16893],[25.70734,54.16364],[25.68743,54.15495],[25.68487,54.1407],[25.66411,54.14071],[25.64997,54.12841],[25.6403,54.13086],[25.63896,54.12765],[25.62858,54.1308],[25.62283,54.14338],[25.60111,54.14252],[25.60194,54.14587],[25.56609,54.15104],[25.55508,54.14619],[25.5485,54.15297],[25.53387,54.15603],[25.53032,54.16588],[25.52152,54.16663],[25.51099,54.17507],[25.51634,54.18634],[25.54268,54.19086],[25.56234,54.19921],[25.56398,54.2137],[25.54628,54.2212],[25.54737,54.22773],[25.55828,54.22822],[25.56418,54.23253],[25.57616,54.22468],[25.58936,54.22503],[25.59005,54.23218],[25.57056,54.24568],[25.56842,54.25746],[25.5522,54.26573],[25.56549,54.2704],[25.5631,54.27485],[25.55739,54.27323],[25.5202,54.28091],[25.51112,54.3013],[25.51357,54.30796],[25.49702,54.30979],[25.49979,54.3002],[25.48096,54.30241],[25.4797,54.29507],[25.46612,54.2898],[25.45339,54.29141],[25.4552,54.29796],[25.43405,54.2956],[25.40957,54.28729],[25.39536,54.27422],[25.38103,54.27812],[25.37671,54.27276],[25.36518,54.27164],[25.35365,54.26398],[25.34617,54.26289],[25.33685,54.26653],[25.3214,54.26197],[25.29108,54.26171],[25.27003,54.27531],[25.25161,54.25106],[25.23439,54.26335],[25.21778,54.25746],[25.21183,54.24171],[25.20268,54.23796],[25.20301,54.22419],[25.19494,54.21837],[25.19572,54.21306],[25.1613,54.19956],[25.16282,54.1916],[25.13933,54.18342],[25.09143,54.146],[25.07704,54.14268],[25.07063,54.13365],[25.05523,54.1375],[25.01581,54.13752],[24.99293,54.14423],[24.98433,54.14909],[24.97621,54.16547],[24.95737,54.17206],[24.91807,54.16349],[24.91698,54.16043],[24.90122,54.16208],[24.90461,54.15771],[24.8658,54.14697],[24.85822,54.14982],[24.83845,54.14681],[24.82865,54.14911],[24.81338,54.14486],[24.83123,54.1325],[24.79379,54.11549],[24.77372,54.1177],[24.77656,54.10386],[24.79769,54.09178],[24.81976,54.06883],[24.8256,54.05502],[24.82257,54.04344],[24.84116,54.03374],[24.8639,54.03937],[24.86988,54.03137],[24.86184,54.02697],[24.85779,54.0306],[24.83187,54.02719],[24.83922,54.02104],[24.83238,54.01244],[24.8235,54.01332],[24.81371,54.00467],[24.80809,54.00482],[24.81958,53.99773],[24.81556,53.99619],[24.80848,53.99492],[24.7939,54.00021],[24.76915,53.99003],[24.75708,54.00023],[24.75025,53.9944],[24.75881,53.99006],[24.73181,53.97325],[24.74079,53.96889],[24.73884,53.96599],[24.70113,53.96577],[24.68461,53.96212],[24.70565,54.00983],[24.69787,54.01714],[24.68367,54.01785],[24.67252,54.01697],[24.66001,54.00556],[24.64329,54.00627],[24.64363,54.00863],[24.63126,54.00569],[24.62591,54.0105],[24.60089,53.99884],[24.60303,53.99346],[24.57752,53.98626],[24.57406,53.98808],[24.54352,53.97158],[24.51705,53.96642],[24.5076,53.96037],[24.50372,53.94534],[24.48252,53.9318],[24.47478,53.93196],[24.45812,53.91809],[24.45729,53.90961],[24.43716,53.90109],[24.43398,53.90443],[24.38969,53.90347],[24.35207,53.89679],[24.30638,53.91403],[24.30462,53.91942],[24.31113,53.92557],[24.29819,53.93043],[24.30145,53.93688],[24.29804,53.93932],[24.29507,53.92985],[24.3035,53.92648],[24.28671,53.92197],[24.27341,53.93531],[24.26344,53.93612],[24.25732,53.94259],[24.25971,53.94905],[24.2504,53.95287],[24.24862,53.94883],[24.2406,53.95063],[24.23316,53.94484],[24.21027,53.94976],[24.21603,53.95729],[24.20161,53.97002],[24.17341,53.96193],[24.15421,53.96111],[24.14219,53.95383],[24.11447,53.95802],[24.10349,53.95066],[24.1031,53.94051],[23.98289,53.92395],[23.96831,53.92668],[23.96549,53.93489],[23.97166,53.93324],[23.97054,53.94154],[23.9613,53.95458],[23.94911,53.9592],[23.9353,53.95841],[23.9141,53.96942],[23.91913,53.97611],[23.91373,53.98504],[23.92683,53.99218],[23.93542,54.00134],[23.93559,54.01346],[23.96578,54.02973],[23.98046,54.0193],[23.99043,54.0203],[24.0041,54.0339],[24.00531,54.04435],[24.01397,54.05183],[24.01767,54.06113],[24.02612,54.06607],[24.03779,54.07882],[24.04913,54.08026],[24.07421,54.07147],[24.13048,54.06321],[24.14084,54.06366],[24.15469,54.06779],[24.16049,54.07191],[24.16226,54.07663],[24.16121,54.08995],[24.15519,54.09623],[24.15831,54.10619],[24.15464,54.11152],[24.13346,54.11823],[24.15184,54.11129],[24.15681,54.10494],[24.1539,54.09598],[24.16051,54.07731],[24.15731,54.07133],[24.13409,54.0639],[24.07709,54.07187],[24.05114,54.08104],[24.03579,54.07959],[24.01645,54.06166],[24.0038,54.04447],[24.0027,54.03422],[23.98859,54.02125],[23.98134,54.02039],[23.96681,54.0316],[23.96022,54.02974],[23.93599,54.01688],[23.93336,54.01067],[23.93452,54.00221],[23.91169,53.98477],[23.91588,53.97536],[23.90583,53.96617],[23.905,53.95251],[23.88151,53.94382],[23.85976,53.95427],[23.8438,53.95654],[23.83469,53.95415],[23.7959,53.93352],[23.79947,53.92542],[23.81511,53.91873],[23.81686,53.91073],[23.79688,53.90035],[23.77812,53.89892],[23.77397,53.90338],[23.78103,53.91119],[23.77342,53.91101],[23.76432,53.92456],[23.73208,53.92987],[23.72104,53.93688],[23.70949,53.93944],[23.70314,53.93388],[23.68194,53.93196],[23.67506,53.93495],[23.66679,53.93103],[23.65206,53.93497],[23.61036,53.92471],[23.5981,53.92958],[23.60016,53.93616],[23.5846,53.93732],[23.58145,53.94272],[23.56879,53.94456],[23.56078,53.93901],[23.54815,53.9445],[23.53708,53.94182],[23.52682,53.95603],[23.51604,53.95483],[23.50747,53.96606],[23.4954,53.96942],[23.49824,53.97179],[23.48605,53.97923],[23.48928,53.98279],[23.4807,53.99801],[23.49324,54.0071],[23.50358,54.00653],[23.5162,54.02858],[23.52612,54.03348],[23.5286,54.06578],[23.51839,54.07868],[23.51692,54.09835],[23.50696,54.09949],[23.50202,54.11294],[23.49262,54.11701],[23.49534,54.13257],[23.48585,54.15323],[23.47333,54.15809],[23.47552,54.16342],[23.46123,54.16778],[23.45899,54.17554],[23.42983,54.17753],[23.42162,54.19214],[23.40767,54.19776],[23.40429,54.21213],[23.38798,54.22242],[23.39107,54.22562],[23.36172,54.23102],[23.33752,54.25172],[23.29661,54.25553],[23.2818,54.26067],[23.24888,54.25682],[23.23388,54.26091],[23.20242,54.28863],[23.1542,54.29702],[23.15976,54.3096],[23.1488,54.31435],[23.1404,54.31595],[23.09217,54.29845],[23.05097,54.31244],[23.04212,54.31597],[23.04636,54.32722],[23.06316,54.34096],[23.0477,54.34919],[23.00938,54.35572],[22.99391,54.3619],[23.01021,54.3828],[22.98478,54.38454],[22.98385,54.38957],[22.8875,54.39994],[22.88799,54.40909],[22.85469,54.4104],[22.8363,54.40648],[22.81143,54.37098],[22.792,54.36332],[22.76728,54.38458],[22.77146,54.39504],[22.76013,54.40156],[22.76038,54.41828],[22.74754,54.4252],[22.74864,54.43603],[22.73889,54.45043],[22.70118,54.45361],[22.69936,54.50725],[22.68455,54.51841],[22.68059,54.53303],[22.69411,54.55023],[22.71335,54.56387],[22.70314,54.56722],[22.70001,54.57605],[22.6849,54.58114],[22.684,54.58653],[22.70555,54.60282],[22.72003,54.60662],[22.72667,54.62294],[22.74538,54.62671],[22.74877,54.63089],[22.75034,54.63873],[22.74168,54.64265],[22.74586,54.64713],[22.75469,54.64761],[22.7572,54.65262],[22.73077,54.66644],[22.74049,54.67404],[22.73772,54.67969],[22.72872,54.67886],[22.72334,54.68602],[22.72925,54.698],[22.73966,54.69902],[22.73699,54.70301],[22.74896,54.70644],[22.74837,54.71203],[22.73873,54.71689],[22.7459,54.72551],[22.74358,54.7315],[22.74982,54.73057],[22.76689,54.73796],[22.77685,54.74872],[22.77403,54.75118],[22.78254,54.74908],[22.79052,54.75437],[22.79996,54.75333],[22.79959,54.74754],[22.80715,54.74801],[22.80633,54.75257],[22.81575,54.75546],[22.80501,54.75436],[22.81303,54.76652],[22.82643,54.76402],[22.83124,54.76913],[22.8441,54.76685],[22.84856,54.77461],[22.85956,54.77767],[22.84833,54.78567],[22.85481,54.78984],[22.87791,54.7908],[22.87181,54.79735],[22.87333,54.80544],[22.88666,54.81408],[22.87133,54.82022],[22.88029,54.82528],[22.87649,54.83408],[22.85878,54.83914],[22.86928,54.85322],[22.83993,54.86434],[22.85566,54.88633],[22.84756,54.89031],[22.84625,54.89742],[22.83613,54.89866],[22.8359,54.90385],[22.8204,54.91198],[22.79961,54.90255],[22.79326,54.90372],[22.78336,54.92493],[22.7687,54.92364],[22.76174,54.91707],[22.7553,54.9184],[22.74935,54.92444],[22.76662,54.93575],[22.74232,54.93961],[22.72641,54.96325],[22.7074,54.97364],[22.69002,54.9716],[22.68768,54.98071],[22.67807,54.9875],[22.67084,54.98815],[22.65937,54.98188],[22.66832,54.96921],[22.66381,54.96457],[22.65735,54.96781],[22.65283,54.96504],[22.64406,54.9699],[22.6431,54.98401],[22.63624,54.98508],[22.61419,55.01271],[22.60358,55.01345],[22.59619,55.02578],[22.59748,55.04599],[22.5903,55.0541],[22.58954,55.069],[22.61956,55.05984],[22.63118,55.05218],[22.66254,55.04773],[22.71579,55.05783],[22.74099,55.05784],[22.78301,55.07608],[22.81181,55.07413],[22.85679,55.08767],[22.93331,55.08108],[22.96184,55.08519],[23.00764,55.09922],[23.04463,55.10346],[23.05803,55.10071],[23.0629,55.10055],[23.06441,55.10153],[23.06835,55.10105],[23.07225,55.0991],[23.07591,55.09838],[23.08981,55.09818],[23.13053,55.0885],[23.18043,55.08808],[23.233,55.07724],[23.26649,55.07593],[23.33214,55.06481],[23.38688,55.07407],[23.42261,55.07129],[23.47459,55.04876],[23.50663,55.04261],[23.51302,55.04265],[23.50305,55.04358],[23.5527,55.04225],[23.58113,55.03369],[23.58565,55.02822],[23.58143,55.01385],[23.59595,54.98959],[23.6013,54.96192],[23.63814,54.93365],[23.66714,54.928],[23.72374,54.93585],[23.76088,54.92803],[23.80934,54.90616],[23.83918,54.90613],[23.86898,54.90137],[23.87912,54.89437],[23.89658,54.89296],[23.92104,54.88485],[23.9291,54.86132],[23.94158,54.85742],[23.95325,54.86061],[23.96386,54.87184],[23.95949,54.8864],[23.96791,54.89319],[23.98007,54.89251],[23.99117,54.8763],[23.99478,54.87345],[24.00049,54.87481],[23.98525,54.8919],[23.97293,54.89566],[23.95922,54.89199],[23.95646,54.88529],[23.96055,54.87187],[23.95079,54.86169],[23.94096,54.86],[23.9311,54.86272],[23.92894,54.87931],[23.91489,54.89286],[23.90832,54.89431],[23.88289,54.8948],[23.87241,54.89993],[23.88869,54.901],[23.90823,54.91106],[23.91197,54.91764],[23.91467,54.93073],[23.91367,54.93075],[23.91488,54.94114],[23.91438,54.94407],[23.9252,54.95481],[23.95054,54.95897],[23.96617,54.95234],[23.98346,54.95127],[23.99708,54.95526],[23.99862,54.95653],[24.00316,54.965],[24.02697,54.97799],[24.05629,54.9781],[24.08943,54.9848],[24.10109,54.99626],[24.1017,55.0078],[24.11199,55.0144],[24.11064,55.02],[24.12045,55.02421],[24.12107,55.0249],[24.11936,55.03492],[24.12589,55.04006],[24.12609,55.04044],[24.12593,55.04143],[24.12501,55.04325],[24.12556,55.04438],[24.13735,55.04811],[24.14684,55.05547],[24.16339,55.05293],[24.19712,55.05806],[24.20975,55.05665],[24.27447,55.06633],[24.29038,55.07068],[24.32088,55.0901],[24.34652,55.09423],[24.35001,55.09324],[24.35246,55.08881],[24.35657,55.08713],[24.35666,55.07918],[24.36464,55.07592],[24.36566,55.06964],[24.37423,55.06535],[24.37482,55.05757],[24.3936,55.0548],[24.40451,55.056],[24.41713,55.05234],[24.42406,55.0514],[24.43144,55.05198],[24.43655,55.05099],[24.44568,55.04193],[24.44332,55.03725],[24.44476,55.03313],[24.45409,55.02204],[24.46355,55.01648],[24.48063,55.01538],[24.48846,55.01198],[24.50372,55.01065],[24.52502,55.01237],[24.54382,54.99487],[24.55293,54.98962],[24.56695,54.98532],[24.57916,54.97297],[24.59637,54.97136],[24.61811,54.97433],[24.62367,54.96801],[24.63023,54.96681],[24.62904,54.96152],[24.63781,54.9554],[24.65166,54.95059],[24.67666,54.9469],[24.69089,54.92617],[24.72542,54.93205],[24.73032,54.93084],[24.74831,54.93151],[24.76541,54.91827],[24.79064,54.91109],[24.79805,54.91057],[24.80064,54.90563],[24.81079,54.90292],[24.80835,54.89545],[24.80965,54.8863],[24.82126,54.88167],[24.8292,54.88568],[24.83371,54.87968],[24.84554,54.8776],[24.84456,54.86188],[24.86047,54.85664],[24.85958,54.84787],[24.86134,54.84584],[24.86624,54.84339],[24.87353,54.84243],[24.8918,54.84538],[24.90427,54.83866],[24.90346,54.83373],[24.89583,54.83425],[24.89122,54.83245],[24.88437,54.81972],[24.89098,54.80378],[24.88686,54.7986],[24.88913,54.79163],[24.90136,54.78486],[24.90454,54.78479],[24.9142,54.78767],[24.92088,54.79617],[24.91977,54.81229],[24.92506,54.81539],[24.93545,54.81514],[24.9484,54.81209],[24.95116,54.81157],[24.95231,54.81159],[24.97334,54.80354],[24.97276,54.79551],[24.95788,54.79245],[24.93859,54.77896],[24.93795,54.77503],[24.94715,54.76772],[24.95689,54.76963],[24.9671,54.76684],[24.97659,54.75509],[24.99569,54.74836],[24.99481,54.74698],[24.9808,54.74553],[24.97693,54.7438],[24.97333,54.7396],[24.97608,54.73502],[24.99587,54.73247],[25.01696,54.73891],[25.02332,54.73351],[25.01103,54.72779],[25.01063,54.724],[25.01322,54.72223],[25.02646,54.71997],[25.03886,54.72306],[25.06315,54.71594],[25.07434,54.70683],[25.06941,54.69434],[25.07022,54.69],[25.07332,54.68791],[25.07988,54.68706],[25.08241,54.68128],[25.10669,54.67388],[25.1174,54.67262],[25.12851,54.67639],[25.13655,54.6809],[25.15059,54.6788],[25.15922,54.68028],[25.16562,54.67218],[25.18222,54.67092],[25.1744,54.66414],[25.17392,54.66271],[25.17646,54.658],[25.20776,54.64815],[25.22264,54.6543],[25.22735,54.6598],[25.23281,54.68017],[25.22813,54.68785],[25.23275,54.68897],[25.24026,54.69236],[25.24693,54.6856],[25.25428,54.68415],[25.25823,54.6857],[25.26295,54.69526],[25.26763,54.69514],[25.27389,54.69183],[25.28939,54.68859],[25.29365,54.68922],[25.30232,54.69443],[25.28895,54.68918],[25.26849,54.69561],[25.26272,54.69587],[25.25415,54.68467],[25.24073,54.69307],[25.22674,54.68826],[25.23118,54.67526],[25.22542,54.65926],[25.20771,54.64867],[25.18996,54.65695],[25.17795,54.65815],[25.18263,54.67197],[25.16679,54.67264],[25.15963,54.6809],[25.13825,54.68186],[25.11667,54.67334],[25.08307,54.68183],[25.08154,54.68715],[25.07171,54.69025],[25.07606,54.70682],[25.06354,54.71662],[25.05497,54.72072],[25.03965,54.72371],[25.02666,54.72084],[25.01307,54.7234],[25.01292,54.72812],[25.02314,54.73257],[25.02459,54.73432],[25.0164,54.73993],[24.9953,54.73338],[24.97613,54.73616],[24.97891,54.74299],[24.99568,54.74663],[24.99687,54.7488],[24.97867,54.755],[24.96737,54.76776],[24.95767,54.77033],[24.95207,54.76914],[24.93941,54.77505],[24.95892,54.79178],[24.97383,54.79525],[24.97402,54.80399],[24.94962,54.81348],[24.93625,54.81579],[24.92545,54.8162],[24.91878,54.81243],[24.91956,54.79652],[24.91251,54.7877],[24.88987,54.79215],[24.89194,54.80392],[24.8855,54.81946],[24.8929,54.83272],[24.9037,54.83283],[24.90548,54.83921],[24.89164,54.84614],[24.87386,54.8432],[24.86192,54.84642],[24.86241,54.85618],[24.84592,54.86217],[24.84928,54.87346],[24.8467,54.87871],[24.83421,54.88062],[24.83048,54.88635],[24.82076,54.88249],[24.81043,54.88695],[24.81085,54.90445],[24.80085,54.90632],[24.79794,54.91156],[24.76604,54.91882],[24.74909,54.93199],[24.71755,54.93303],[24.69064,54.92746],[24.69067,54.93405],[24.68412,54.94318],[24.68002,54.94622],[24.63834,54.95667],[24.63066,54.96222],[24.63222,54.96679],[24.6195,54.97507],[24.58,54.97389],[24.56874,54.98546],[24.54479,54.99592],[24.5271,55.0129],[24.50269,55.01159],[24.48238,55.01608],[24.46296,55.01766],[24.44536,55.03531],[24.44716,55.0404],[24.44691,55.04234],[24.43779,55.05152],[24.40582,55.05666],[24.37518,55.05873],[24.37694,55.06452],[24.36592,55.07715],[24.35785,55.07966],[24.35866,55.08901],[24.35049,55.09435],[24.34619,55.09527],[24.31893,55.09063],[24.29534,55.07714],[24.28571,55.07006],[24.2741,55.06731],[24.20701,55.05752],[24.19788,55.05912],[24.16221,55.05407],[24.15231,55.05658],[24.1438,55.05563],[24.12392,55.04476],[24.10829,55.02057],[24.109,55.01346],[24.10241,55.01069],[24.09983,55.00826],[24.09899,54.99747],[24.09689,54.99549],[24.09285,54.9897],[24.09015,54.98749],[24.08392,54.98505],[24.07934,54.98499],[24.07181,54.98401],[24.05549,54.97933],[24.02537,54.97895],[24.00247,54.96689],[23.99513,54.95644],[23.98318,54.95281],[23.96927,54.95312],[23.95172,54.96012],[23.92468,54.95696],[23.91171,54.94251],[23.90749,54.91247],[23.89629,54.90768],[23.88697,54.90223],[23.87317,54.90083],[23.85704,54.90612],[23.86402,54.9071],[23.80977,54.90834],[23.75642,54.93152],[23.7862,54.9252],[23.78844,54.9264],[23.79369,54.93167],[23.79578,54.93877],[23.78868,54.94822],[23.79473,54.94946],[23.80113,54.95319],[23.79808,54.96388],[23.80421,54.96348],[23.80604,54.96578],[23.80346,54.97797],[23.79456,54.97968],[23.7956,54.98829],[23.78469,54.99987],[23.79372,55.00621],[23.79707,55.01231],[23.79584,55.01554],[23.79343,55.01713],[23.79749,55.0188],[23.79688,55.02965],[23.79089,55.03371],[23.79539,55.03938],[23.7985,55.05339],[23.7973,55.05497],[23.7921,55.05816],[23.79722,55.06375],[23.79738,55.06682],[23.7957,55.07142],[23.78916,55.07302],[23.79046,55.07441],[23.7894,55.0773],[23.79275,55.0805],[23.79271,55.082],[23.78336,55.08886],[23.78313,55.09568],[23.78095,55.09723],[23.78493,55.098],[23.78812,55.09976],[23.78714,55.10104],[23.78237,55.10245],[23.78188,55.10399],[23.78504,55.10638],[23.78859,55.11143],[23.78906,55.11592],[23.78136,55.10419],[23.78176,55.10232],[23.78745,55.09967],[23.78032,55.09712],[23.78254,55.08901],[23.79216,55.08158],[23.78658,55.07403],[23.79669,55.06656],[23.79141,55.05827],[23.79787,55.05329],[23.79016,55.03343],[23.79617,55.02938],[23.79671,55.01873],[23.79279,55.0173],[23.79289,55.00648],[23.78384,55.00044],[23.79486,54.98772],[23.79347,54.9796],[23.80293,54.97706],[23.80501,54.96632],[23.79754,54.96508],[23.80036,54.95348],[23.78781,54.94844],[23.79474,54.93991],[23.79257,54.93138],[23.78498,54.92633],[23.72059,54.93844],[23.66218,54.93085],[23.63392,54.93845],[23.60656,54.96093],[23.59804,54.99437],[23.58546,55.01446],[23.59036,55.02945],[23.58385,55.0354],[23.5572,55.04364],[23.50133,55.04569],[23.47493,55.05085],[23.44197,55.06793],[23.41956,55.07415],[23.38446,55.07641],[23.35506,55.06951],[23.32303,55.06812],[23.25858,55.07892],[23.22496,55.08075],[23.18663,55.0895],[23.13254,55.09061],[23.05104,55.10599],[23.0074,55.10113],[22.94478,55.08441],[22.91006,55.08403],[22.9032,55.08473],[22.89163,55.08838],[22.8771,55.09089],[22.85331,55.09006],[22.81064,55.07604],[22.7771,55.07661],[22.74261,55.06002],[22.71482,55.05958],[22.72815,55.06441],[22.65938,55.04947],[22.6353,55.0532],[22.61983,55.06224],[22.59337,55.07056],[22.59995,55.06893],[22.60078,55.0702],[22.58316,55.07132],[22.58862,55.07299],[22.54603,55.06668],[22.48651,55.04724],[22.46762,55.04514],[22.42511,55.05506],[22.39435,55.0539],[22.34958,55.06261],[22.29209,55.06607],[22.21852,55.06152],[22.18534,55.05465],[22.15711,55.05648],[22.13313,55.04757],[22.12068,55.02894],[22.08844,55.02518],[22.06274,55.02935],[22.03967,55.04125],[22.03221,55.05466],[22.04165,55.06774],[22.04244,55.07657],[22.03383,55.08489],[21.99466,55.08729],[21.96414,55.07493],[21.91682,55.08211],[21.88094,55.09439],[21.85218,55.09756],[21.81534,55.12055],[21.78185,55.11994],[21.74147,55.13109],[21.72297,55.13387],[21.71485,55.14967],[21.68961,55.1634],[21.67071,55.16872],[21.65892,55.17776],[21.6512,55.18186],[21.59783,55.18831],[21.57639,55.19825],[21.55736,55.19981],[21.52749,55.19439],[21.52195,55.19117],[21.51752,55.18762],[21.51963,55.18736],[21.5176,55.18679],[21.51721,55.18765],[21.50173,55.18757],[21.48167,55.20908],[21.45745,55.218],[21.44872,55.22529],[21.43481,55.25125],[21.41033,55.27477],[21.4147,55.2796],[21.41101,55.28472],[21.38377,55.29666],[21.38774,55.32088],[21.37757,55.33203],[21.35685,55.3438],[21.30188,55.34712],[21.32167,55.35371],[21.33536,55.35138],[21.34203,55.35468],[21.34362,55.36633],[21.35593,55.36726],[21.34832,55.36942],[21.35362,55.37172],[21.3504,55.37717],[21.33201,55.38453],[21.31402,55.38318],[21.30314,55.3624],[21.31701,55.36325],[21.31255,55.3551],[21.29435,55.34698],[21.28412,55.3523],[21.28419,55.36799],[21.27639,55.37557],[21.28459,55.37986],[21.28472,55.38567],[21.29221,55.38571],[21.29732,55.39019],[21.30318,55.39284],[21.30382,55.39388],[21.30245,55.39543],[21.29915,55.39604],[21.30287,55.39321],[21.284,55.38593],[21.2867,55.39687],[21.2926,55.40455],[21.30332,55.40586],[21.30591,55.40704],[21.30732,55.41196],[21.31247,55.4131],[21.31967,55.42148],[21.32842,55.42177],[21.32932,55.41636],[21.34769,55.41077],[21.35326,55.41192],[21.35334,55.41396],[21.35365,55.41193],[21.35695,55.41136],[21.36004,55.41304],[21.36012,55.41461],[21.36038,55.41303],[21.36475,55.41179],[21.37582,55.41043],[21.39484,55.41162],[21.40446,55.41553],[21.39476,55.41195],[21.37588,55.41087],[21.37233,55.41168],[21.39513,55.4123],[21.40251,55.4156],[21.40272,55.41628],[21.3999,55.41928],[21.40366,55.41593],[21.39642,55.42281],[21.40219,55.41628],[21.39483,55.41247],[21.37028,55.41225],[21.37207,55.41165],[21.36949,55.4121],[21.36819,55.41432],[21.36407,55.41326],[21.36797,55.4135],[21.36923,55.41188],[21.36759,55.41339],[21.36169,55.41317],[21.36045,55.4148],[21.35898,55.41447],[21.35685,55.41189],[21.35351,55.41423],[21.34797,55.4117],[21.33096,55.41614],[21.33012,55.42117],[21.32583,55.42307],[21.31452,55.42204],[21.31943,55.42594],[21.32184,55.42933],[21.32823,55.42905],[21.33188,55.42988],[21.33506,55.4338],[21.33786,55.4449],[21.34405,55.44756],[21.34706,55.44971],[21.35452,55.45919],[21.35881,55.46007],[21.3656,55.46794],[21.36788,55.47234],[21.36617,55.48765],[21.36319,55.49136],[21.36336,55.49516],[21.36029,55.49915],[21.35837,55.50011],[21.35116,55.50054],[21.34187,55.50935],[21.33699,55.50894],[21.34336,55.51326],[21.34487,55.52316],[21.34736,55.52419],[21.3499,55.52285],[21.35174,55.52287],[21.35258,55.52383],[21.35237,55.52539],[21.34679,55.52773],[21.34382,55.52782],[21.34398,55.529],[21.34625,55.52955],[21.34631,55.53046],[21.33753,55.53827],[21.32394,55.54472],[21.32916,55.54582],[21.33181,55.54793],[21.33036,55.55054],[21.32415,55.55416],[21.33087,55.55423],[21.33237,55.55639],[21.32954,55.55788],[21.32349,55.5587],[21.32692,55.5655],[21.31297,55.56975],[21.31444,55.57606],[21.31737,55.57856],[21.31744,55.57958],[21.3151,55.58037],[21.30549,55.58152],[21.30401,55.58449],[21.3022,55.5865],[21.29231,55.59464],[21.29499,55.59492],[21.29792,55.59781],[21.30109,55.59857],[21.30272,55.59982],[21.30531,55.61266],[21.29807,55.62313],[21.30382,55.62356],[21.3093,55.63251],[21.30992,55.63643],[21.3078,55.64336],[21.31075,55.64457],[21.31492,55.64886],[21.32906,55.65341],[21.3392,55.66314],[21.36843,55.66771],[21.37305,55.66902],[21.38833,55.67603],[21.3876,55.67871],[21.39025,55.67985],[21.39288,55.68188],[21.39175,55.68437],[21.39546,55.68672],[21.40203,55.7044],[21.4104,55.70297],[21.41141,55.70319],[21.41195,55.70389],[21.41202,55.70596],[21.40581,55.71108],[21.40911,55.71282],[21.4087,55.71499],[21.41252,55.71495],[21.41336,55.71525],[21.41437,55.71625],[21.41375,55.71721],[21.4104,55.71753],[21.41042,55.71892],[21.40888,55.72188],[21.41238,55.72128],[21.41743,55.72404],[21.41777,55.72544],[21.41337,55.72792],[21.42375,55.73068],[21.42608,55.73489],[21.43092,55.73509],[21.43487,55.7381],[21.43398,55.74045],[21.4315,55.74094],[21.43648,55.74322],[21.4346,55.75925],[21.43198,55.76497],[21.42427,55.7689],[21.42592,55.77296],[21.4245,55.77625],[21.42322,55.77692],[21.42593,55.77722],[21.42875,55.78241],[21.42534,55.78638],[21.43513,55.78881],[21.43691,55.79398],[21.42487,55.80536],[21.42717,55.80658],[21.42797,55.80769],[21.42601,55.80828],[21.42256,55.80765],[21.42554,55.80965],[21.42567,55.81058],[21.42477,55.81163],[21.42296,55.81177],[21.41986,55.81063],[21.41734,55.81413],[21.41141,55.81373],[21.41071,55.81513],[21.40726,55.81648],[21.40696,55.81771],[21.40437,55.82024],[21.39559,55.8247],[21.39569,55.82634],[21.39095,55.82967],[21.39451,55.83228],[21.39498,55.83312],[21.39242,55.8385],[21.39022,55.84063],[21.38925,55.84097],[21.38791,55.84068],[21.3871,55.83942],[21.38585,55.83963],[21.38371,55.84288],[21.38948,55.84865],[21.3891,55.84913],[21.38567,55.8502],[21.38481,55.84999],[21.38392,55.85073],[21.38446,55.85282],[21.38578,55.85266],[21.38669,55.85286],[21.38778,55.85423],[21.38843,55.85649],[21.38678,55.85843],[21.39408,55.86038],[21.39616,55.86242],[21.40427,55.87463],[21.40389,55.87496],[21.40108,55.87421],[21.40032,55.87472],[21.40192,55.87485],[21.40312,55.87552],[21.40567,55.88039],[21.40415,55.88254],[21.40716,55.88187],[21.40842,55.88239],[21.40839,55.88685],[21.40523,55.88872],[21.40838,55.88947],[21.4087,55.89096],[21.41049,55.89066],[21.412,55.8909],[21.4181,55.89526],[21.42328,55.90092],[21.42227,55.90144],[21.41895,55.90158],[21.41832,55.90213],[21.4198,55.90328],[21.41984,55.90361],[21.41946,55.90381],[21.42218,55.90619],[21.42415,55.90719],[21.42531,55.90599],[21.42671,55.90527],[21.43216,55.90619],[21.43467,55.90744],[21.43531,55.90945],[21.43713,55.9086],[21.44006,55.90797],[21.47164,55.91064],[21.48133,55.9154],[21.48347,55.91881],[21.48128,55.92078],[21.48326,55.92025],[21.4856,55.92105],[21.4859,55.92174],[21.48428,55.92206],[21.4843,55.923],[21.48229,55.9241],[21.48212,55.92513],[21.4807,55.92591],[21.47823,55.92599],[21.47425,55.92387],[21.47322,55.92562],[21.47445,55.92688],[21.4742,55.92798],[21.47545,55.92912],[21.47511,55.93045],[21.47801,55.93192],[21.47808,55.93261],[21.47713,55.93345],[21.47742,55.93425],[21.47962,55.93444],[21.48158,55.93526],[21.4901,55.94681],[21.49212,55.94722],[21.49124,55.94601],[21.49278,55.94527],[21.49789,55.94648],[21.49754,55.94723],[21.49484,55.9478],[21.49467,55.95005],[21.50198,55.95288],[21.50584,55.96134],[21.51784,55.95122],[21.52051,55.95093],[21.52604,55.95328],[21.52591,55.95097],[21.52797,55.94917],[21.53024,55.94936],[21.53336,55.95135],[21.5383,55.95211],[21.54018,55.9532],[21.54281,55.95267],[21.54441,55.95273],[21.55184,55.95605],[21.55321,55.95531],[21.54983,55.95367],[21.55013,55.95182],[21.55138,55.95167],[21.55763,55.95298],[21.56463,55.94956],[21.56327,55.94896],[21.56116,55.94906],[21.55961,55.94872],[21.5606,55.94483],[21.56592,55.94207],[21.57698,55.93959],[21.57872,55.93962],[21.58102,55.94064],[21.58204,55.94393],[21.59075,55.93896],[21.59302,55.93888],[21.59646,55.94005],[21.59742,55.94116],[21.5927,55.94325],[21.59454,55.94651],[21.5923,55.94781],[21.59474,55.94802],[21.59677,55.94884],[21.59836,55.9518],[21.60294,55.95201],[21.59627,55.9468],[21.59666,55.94578],[21.59787,55.94517],[21.59824,55.94509],[21.59881,55.94516],[21.59947,55.94568],[21.60052,55.94549],[21.60101,55.9439],[21.60241,55.94295],[21.61761,55.94064],[21.62091,55.94081],[21.62326,55.94165],[21.62356,55.94012],[21.62555,55.93946],[21.62426,55.9374],[21.62499,55.93686],[21.62642,55.93679],[21.63078,55.93753],[21.63333,55.93869],[21.63644,55.93884],[21.63286,55.93193],[21.63298,55.92979],[21.63467,55.92862],[21.63614,55.92858],[21.64014,55.93035],[21.64208,55.93381],[21.64866,55.92988],[21.66728,55.92512],[21.66933,55.92503],[21.6712,55.92594],[21.67266,55.92574],[21.67362,55.9236],[21.67268,55.9216],[21.67322,55.92018],[21.68011,55.91568],[21.68414,55.91502],[21.68022,55.91277],[21.68026,55.91124],[21.68244,55.9106],[21.68444,55.91053],[21.68896,55.91224],[21.69593,55.90603],[21.70401,55.90491],[21.70319,55.90416],[21.6977,55.90507],[21.69292,55.90449],[21.69225,55.90389],[21.69409,55.90255],[21.69179,55.90036],[21.69254,55.89993],[21.6944,55.89972],[21.70627,55.8997],[21.70626,55.89911],[21.70244,55.89736],[21.70085,55.89586],[21.70476,55.8913],[21.70714,55.8908],[21.7081,55.89109],[21.7076,55.8938],[21.71106,55.89171],[21.71596,55.89285],[21.71701,55.89185],[21.72543,55.88791],[21.7301,55.88662],[21.72383,55.88417],[21.72395,55.88324],[21.72551,55.88171],[21.73066,55.88625],[21.73056,55.88662],[21.72854,55.88748],[21.7248,55.88841],[21.7161,55.89302],[21.7074,55.89399],[21.70499,55.89148],[21.70118,55.8958],[21.70662,55.89899],[21.70666,55.89973],[21.69213,55.90044],[21.69451,55.9025],[21.69312,55.90431],[21.70274,55.90388],[21.70412,55.90424],[21.70432,55.90502],[21.68907,55.91244],[21.68058,55.91138],[21.68464,55.91495],[21.67348,55.92043],[21.6741,55.92378],[21.67303,55.92583],[21.64195,55.93406],[21.63436,55.92908],[21.63328,55.93231],[21.63658,55.93366],[21.63691,55.93887],[21.63338,55.93896],[21.62544,55.93705],[21.62617,55.93927],[21.62359,55.94182],[21.603,55.94298],[21.60079,55.94563],[21.59681,55.94674],[21.60109,55.94786],[21.60026,55.94911],[21.60366,55.95179],[21.60271,55.95249],[21.59818,55.95202],[21.592,55.94795],[21.59234,55.94338],[21.59659,55.94043],[21.59124,55.93905],[21.5821,55.94419],[21.57683,55.93987],[21.56079,55.94507],[21.56024,55.9486],[21.5641,55.94877],[21.56487,55.94907],[21.56502,55.9496],[21.55802,55.95315],[21.55051,55.95205],[21.55367,55.95527],[21.55185,55.95631],[21.54435,55.9529],[21.53947,55.95328],[21.53343,55.95163],[21.53005,55.94952],[21.5282,55.94937],[21.52643,55.9534],[21.52424,55.95325],[21.52054,55.95114],[21.51806,55.95138],[21.51416,55.95741],[21.50543,55.96155],[21.50196,55.95321],[21.4943,55.95005],[21.49492,55.94737],[21.49762,55.94657],[21.49296,55.94548],[21.4924,55.94733],[21.49028,55.94722],[21.4813,55.93534],[21.47717,55.93438],[21.4749,55.9306],[21.47296,55.92583],[21.47394,55.92383],[21.47606,55.92369],[21.48048,55.92575],[21.48385,55.92204],[21.48566,55.92159],[21.48109,55.92094],[21.47755,55.91375],[21.47202,55.91095],[21.43516,55.90966],[21.43209,55.90645],[21.42443,55.90748],[21.42198,55.90635],[21.41819,55.90318],[21.41805,55.9021],[21.41915,55.90134],[21.4228,55.90089],[21.41778,55.89536],[21.41176,55.89106],[21.40859,55.89112],[21.40489,55.8888],[21.40806,55.88254],[21.4038,55.88264],[21.4001,55.87476],[21.40093,55.87406],[21.40385,55.87456],[21.39586,55.86257],[21.38661,55.85878],[21.38364,55.8506],[21.38451,55.84993],[21.38916,55.84863],[21.38386,55.84758],[21.38355,55.84167],[21.38586,55.83939],[21.39188,55.8387],[21.3907,55.82949],[21.39629,55.82371],[21.41118,55.81353],[21.41988,55.81044],[21.42444,55.81152],[21.42212,55.80757],[21.42756,55.80762],[21.42451,55.80529],[21.43652,55.79379],[21.4348,55.78897],[21.42539,55.78694],[21.42488,55.78589],[21.42522,55.78445],[21.42839,55.78237],[21.42282,55.77698],[21.42389,55.76881],[21.43421,55.75926],[21.43597,55.74336],[21.43113,55.74093],[21.4345,55.73815],[21.4256,55.73496],[21.42331,55.73081],[21.41356,55.72858],[21.41304,55.72672],[21.41672,55.72396],[21.40844,55.72216],[21.41015,55.71737],[21.41401,55.71626],[21.40843,55.71509],[21.40541,55.71099],[21.41134,55.70373],[21.40493,55.7052],[21.40175,55.70458],[21.38713,55.6786],[21.38797,55.67609],[21.36791,55.66781],[21.33916,55.66343],[21.32849,55.65341],[21.3144,55.6489],[21.30736,55.64339],[21.30884,55.63231],[21.30363,55.62374],[21.29776,55.62321],[21.30492,55.61274],[21.30238,55.59989],[21.29748,55.59784],[21.29476,55.59512],[21.29192,55.59461],[21.30516,55.58143],[21.317,55.57959],[21.31405,55.57606],[21.31269,55.56953],[21.3266,55.56523],[21.32306,55.55872],[21.33191,55.556],[21.32384,55.5543],[21.33144,55.5479],[21.32348,55.54496],[21.32621,55.54098],[21.33673,55.5385],[21.34337,55.52784],[21.352,55.52509],[21.35131,55.52299],[21.34725,55.5245],[21.34451,55.52328],[21.33645,55.5091],[21.35064,55.50018],[21.3603,55.49829],[21.36693,55.47216],[21.33716,55.44498],[21.33125,55.43012],[21.32319,55.4302],[21.31973,55.42871],[21.31376,55.42256],[21.31703,55.41859],[21.30662,55.41214],[21.3051,55.4072],[21.29214,55.40512],[21.2866,55.4],[21.28318,55.38774],[21.28386,55.38047],[21.27538,55.37553],[21.28289,55.36802],[21.28254,55.35225],[21.26849,55.35406],[21.27313,55.35942],[21.2627,55.36402],[21.25099,55.36806],[21.27237,55.35935],[21.26778,55.35464],[21.26871,55.35386],[21.27386,55.35329],[21.25253,55.35508]],[[24.35714,56.27214],[24.35892,56.26342],[24.36746,56.26081],[24.3671,56.25648],[24.3774,56.24232],[24.38252,56.24119],[24.39291,56.24174],[24.39898,56.24278],[24.40718,56.24057],[24.40064,56.21971],[24.40291,56.21087],[24.40452,56.20881],[24.40783,56.20693],[24.41831,56.20269],[24.42298,56.19709],[24.42041,56.1903],[24.42171,56.17923],[24.43346,56.17415],[24.4364,56.16796],[24.44996,56.1606],[24.45127,56.15005],[24.45409,56.14607],[24.45074,56.1353],[24.45168,56.12634],[24.45373,56.12194],[24.44386,56.11674],[24.4404,56.11139],[24.44668,56.10122],[24.4339,56.09747],[24.43182,56.09367],[24.43042,56.08556],[24.41977,56.08499],[24.40956,56.07987],[24.39383,56.086],[24.37866,56.08755],[24.37553,56.08681],[24.37446,56.08521],[24.37677,56.08219],[24.37423,56.07662],[24.38067,56.06969],[24.37044,56.06741],[24.36582,56.06131],[24.35576,56.06313],[24.35043,56.06355],[24.3412,56.06171],[24.33676,56.06374],[24.3334,56.06397],[24.32741,56.0622],[24.32117,56.05758],[24.30876,56.05461],[24.27979,56.06096],[24.27765,56.06037],[24.27671,56.05811],[24.27382,56.05728],[24.25042,56.05725],[24.24263,56.05582],[24.22655,56.05614],[24.22209,56.05533],[24.21976,56.05356],[24.21831,56.04493],[24.22037,56.05352],[24.22636,56.05567],[24.24146,56.05529],[24.27355,56.05659],[24.27716,56.05766],[24.27978,56.0605],[24.30841,56.05418],[24.32157,56.05715],[24.33405,56.06356],[24.34061,56.0614],[24.36607,56.06103],[24.37115,56.06718],[24.38168,56.06979],[24.37497,56.07682],[24.37767,56.08244],[24.37584,56.08637],[24.39349,56.08568],[24.39834,56.08174],[24.40996,56.0795],[24.41967,56.08468],[24.43138,56.08535],[24.4348,56.09757],[24.44726,56.10096],[24.44102,56.11107],[24.45443,56.12206],[24.45514,56.14538],[24.45084,56.1609],[24.43312,56.17536],[24.42281,56.17951],[24.42464,56.19646],[24.41926,56.20308],[24.40391,56.21207],[24.4084,56.24057],[24.39757,56.24411],[24.37939,56.24229],[24.36791,56.26126],[24.35932,56.26399],[24.35714,56.27214]],[[22.30972,55.70242],[22.31918,55.68832],[22.31104,55.68218],[22.31024,55.67773],[22.32987,55.67554],[22.33474,55.68045],[22.32664,55.68873],[22.32967,55.6994],[22.3386,55.70078],[22.35576,55.72077],[22.36395,55.72371],[22.34674,55.72182],[22.32318,55.72911],[22.31026,55.72262],[22.3112,55.71659],[22.31747,55.71483],[22.30972,55.70242]],[[21.8292,56.07053],[21.82579,56.06806],[21.84011,56.05984],[21.83128,56.04495],[21.84097,56.04155],[21.83119,56.03878],[21.82962,56.03204],[21.83528,56.02832],[21.84088,56.03094],[21.85047,56.02937],[21.85086,56.02657],[21.83592,56.02683],[21.83923,56.02303],[21.84452,56.02452],[21.83998,56.02148],[21.84881,56.0168],[21.8411,56.01513],[21.83663,56.02162],[21.82966,56.01908],[21.83389,56.01487],[21.85041,56.01343],[21.84379,56.00979],[21.84773,56.0081],[21.85629,56.01612],[21.8474,56.02146],[21.85258,56.01989],[21.86474,56.02433],[21.85419,56.02624],[21.88208,56.03761],[21.88413,56.04506],[21.87389,56.05664],[21.85962,56.05825],[21.85903,56.06538],[21.85567,56.06507],[21.85374,56.06259],[21.84929,56.06296],[21.84636,56.06735],[21.8292,56.07053]],[[22.83939,56.10182],[22.83819,56.09612],[22.83855,56.09369],[22.84198,56.09147],[22.84788,56.08963],[22.84805,56.08657],[22.8509,56.08147],[22.85137,56.07419],[22.85369,56.07321],[22.85553,56.07106],[22.85915,56.06904],[22.85802,56.06618],[22.85816,56.06383],[22.85748,56.06282],[22.85824,56.06168],[22.8598,56.06103],[22.86408,56.06034],[22.87405,56.06067],[22.87617,56.05717],[22.89872,56.04319],[22.92146,56.03675],[22.92144,56.03601],[22.91797,56.03412],[22.91714,56.03301],[22.91766,56.03176],[22.92025,56.03087],[22.91998,56.02974],[22.90543,56.02225],[22.90373,56.0203],[22.89934,56.02073],[22.89348,56.01998],[22.89159,56.01921],[22.88985,56.01559],[22.89087,56.0139],[22.893,56.01286],[22.90268,56.01029],[22.90343,56.00904],[22.90099,56.00834],[22.90077,56.00804],[22.90109,56.00769],[22.91636,56.0036],[22.92906,56.00496],[22.93385,55.99945],[22.93945,55.99776],[22.93449,56.00046],[22.9436,55.99934],[22.94217,55.99548],[22.94431,55.99933],[22.93071,56.00479],[22.92938,56.00523],[22.92383,56.00517],[22.91651,56.00383],[22.90407,56.00718],[22.90313,56.01039],[22.89075,56.01476],[22.8921,56.01914],[22.90368,56.02004],[22.92043,56.02976],[22.92047,56.03102],[22.91745,56.03286],[22.92157,56.0355],[22.92181,56.03585],[22.92189,56.03647],[22.92144,56.03709],[22.89843,56.04357],[22.87658,56.05732],[22.87738,56.0593],[22.87438,56.06085],[22.8726,56.06125],[22.86874,56.06172],[22.86378,56.06059],[22.85777,56.06258],[22.85849,56.06397],[22.85944,56.06897],[22.85426,56.0732],[22.8516,56.07445],[22.85148,56.08155],[22.84826,56.08979],[22.83863,56.09619],[22.83966,56.10171],[22.85484,56.10631],[22.85778,56.10952],[22.85723,56.11162],[22.85226,56.11517],[22.85273,56.11731],[22.8623,56.11823],[22.86478,56.11994],[22.86409,56.12171],[22.8608,56.12336],[22.85578,56.12474],[22.85453,56.12807],[22.83501,56.13289],[22.82693,56.12987],[22.81808,56.12959],[22.81409,56.12808],[22.81289,56.1304],[22.8087,56.13233],[22.80137,56.13314],[22.79884,56.13678],[22.80466,56.14197],[22.81224,56.14173],[22.81415,56.14239],[22.81458,56.1432],[22.81424,56.14402],[22.80979,56.1473],[22.80803,56.14776],[22.80356,56.1475],[22.79563,56.14848],[22.78359,56.14525],[22.78353,56.14724],[22.78726,56.15026],[22.78757,56.1507],[22.78757,56.15126],[22.7864,56.15264],[22.78227,56.15423],[22.77927,56.15471],[22.77293,56.15402],[22.77339,56.15441],[22.76883,56.15351],[22.7668,56.15581],[22.76149,56.15798],[22.75923,56.15849],[22.75723,56.15798],[22.75389,56.15519],[22.75107,56.15489],[22.75257,56.1604],[22.7516,56.16118],[22.74989,56.16161],[22.73483,56.16012],[22.73896,56.16287],[22.73813,56.16898],[22.737,56.16972],[22.73493,56.16988],[22.73419,56.17072],[22.73162,56.17191],[22.72878,56.17208],[22.72753,56.17168],[22.72137,56.16761],[22.71944,56.16868],[22.72179,56.17209],[22.72107,56.17305],[22.71986,56.17349],[22.70684,56.17585],[22.70482,56.1757],[22.69951,56.17321],[22.69547,56.17374],[22.69606,56.1774],[22.69174,56.18031],[22.69389,56.18137],[22.69635,56.18361],[22.69851,56.18698],[22.69838,56.18763],[22.69719,56.18803],[22.69502,56.18816],[22.67964,56.18487],[22.6798,56.18886],[22.67653,56.19114],[22.6649,56.19153],[22.66891,56.19397],[22.67011,56.19657],[22.66946,56.19724],[22.6632,56.19885],[22.65517,56.19772],[22.65556,56.19976],[22.6548,56.2003],[22.65368,56.20048],[22.65092,56.20045],[22.64836,56.20005],[22.64723,56.19962],[22.64301,56.20002],[22.63941,56.20415],[22.6357,56.20392],[22.63347,56.20522],[22.62701,56.20755],[22.62226,56.20806],[22.6265,56.21022],[22.6299,56.21467],[22.62935,56.21513],[22.62733,56.21547],[22.62236,56.21428],[22.61432,56.21755],[22.61665,56.21862],[22.61797,56.21993],[22.61739,56.22212],[22.62036,56.22426],[22.62052,56.22487],[22.6196,56.22528],[22.61128,56.2266],[22.59471,56.22333],[22.58634,56.2284],[22.57734,56.23015],[22.57742,56.23274],[22.56505,56.23333],[22.54282,56.23131],[22.53197,56.23672],[22.52943,56.23596],[22.52481,56.23291],[22.53161,56.23627],[22.54302,56.23088],[22.57525,56.23226],[22.57772,56.22957],[22.5947,56.22305],[22.61343,56.22594],[22.61815,56.22391],[22.61696,56.22226],[22.61752,56.21991],[22.614,56.21809],[22.6146,56.21692],[22.62244,56.21406],[22.62954,56.21474],[22.62207,56.20898],[22.62231,56.20776],[22.63581,56.20374],[22.63923,56.20402],[22.63877,56.20158],[22.64015,56.20059],[22.64258,56.19985],[22.64699,56.19943],[22.65415,56.20025],[22.65498,56.1976],[22.66933,56.19702],[22.66463,56.19142],[22.67624,56.19097],[22.67935,56.18478],[22.69794,56.18762],[22.69144,56.18038],[22.69552,56.17347],[22.69997,56.1731],[22.70659,56.17565],[22.72015,56.17329],[22.71914,56.16872],[22.72153,56.16743],[22.73167,56.1717],[22.73491,56.16967],[22.73779,56.16903],[22.73453,56.16005],[22.75052,56.16138],[22.74909,56.15801],[22.74957,56.15548],[22.7513,56.15462],[22.75258,56.1546],[22.75516,56.15551],[22.75892,56.15832],[22.7684,56.15338],[22.78215,56.15413],[22.7872,56.15129],[22.78302,56.14699],[22.78285,56.14549],[22.78396,56.14491],[22.80896,56.14727],[22.81379,56.14254],[22.80471,56.14233],[22.79765,56.14079],[22.79692,56.13948],[22.8007,56.13333],[22.81443,56.12763],[22.81802,56.12929],[22.8267,56.12951],[22.83614,56.13205],[22.85415,56.1278],[22.85398,56.12562],[22.86412,56.11997],[22.85219,56.11729],[22.85186,56.11496],[22.85724,56.10957],[22.83939,56.10182]],[[22.13996,56.10048],[22.15213,56.10276],[22.16371,56.09946],[22.16848,56.10535],[22.16541,56.1141],[22.17741,56.1238],[22.16771,56.14464],[22.16324,56.1427],[22.16855,56.13641],[22.16245,56.13169],[22.16751,56.12365],[22.15995,56.1126],[22.14746,56.10857],[22.13996,56.10048]],[[22.95059,54.64409],[22.95592,54.63932],[22.96757,54.64559],[22.98104,54.63997],[22.98565,54.64205],[23.00673,54.63901],[23.01286,54.64414],[23.00968,54.64812],[23.00106,54.64619],[22.99462,54.65251],[22.97931,54.65402],[22.97759,54.64905],[22.96018,54.65061],[22.95059,54.64409]],[[23.26914,55.87178],[23.26532,55.8641],[23.2722,55.85841],[23.31267,55.84659],[23.31995,55.84879],[23.33948,55.87098],[23.33356,55.87653],[23.32554,55.87559],[23.30336,55.88341],[23.26914,55.87178]],[[23.0977,55.9021],[23.11886,55.89142],[23.1228,55.89272],[23.1213,55.87912],[23.11061,55.87996],[23.11914,55.87801],[23.11605,55.87063],[23.1339,55.8631],[23.13258,55.86898],[23.14402,55.88038],[23.14125,55.88411],[23.15264,55.8847],[23.15098,55.88173],[23.16025,55.88681],[23.16179,55.88252],[23.18582,55.89377],[23.20726,55.89408],[23.21311,55.8991],[23.20314,55.89468],[23.18132,55.89749],[23.17814,55.89117],[23.16556,55.8912],[23.15606,55.88565],[23.14444,55.88549],[23.14345,55.88952],[23.1285,55.8694],[23.12326,55.87173],[23.12516,55.88501],[23.13485,55.88426],[23.13418,55.88666],[23.11658,55.90136],[23.11241,55.89765],[23.09971,55.90644],[23.0977,55.9021]],[[23.57632,54.01582],[23.61305,54.00847],[23.63794,54.01622],[23.63281,54.01913],[23.6143,54.01144],[23.57782,54.016],[23.58978,54.01594],[23.58955,54.03081],[23.60038,54.03381],[23.60618,54.04348],[23.60148,54.05109],[23.59028,54.05589],[23.59676,54.06],[23.59577,54.07081],[23.60723,54.07663],[23.61131,54.07454],[23.63201,54.0763],[23.65844,54.08345],[23.65873,54.08745],[23.63424,54.0811],[23.60991,54.08486],[23.60874,54.08062],[23.57925,54.07946],[23.60184,54.07544],[23.58942,54.07506],[23.58709,54.05551],[23.5986,54.04859],[23.59759,54.04232],[23.5859,54.03337],[23.58517,54.02114],[23.58087,54.02361],[23.56848,54.01416],[23.57632,54.01582]],[[23.57396,54.15073],[23.55598,54.14287],[23.56599,54.14321],[23.56692,54.12631],[23.57306,54.12593],[23.57597,54.13021],[23.58185,54.12757],[23.57749,54.13799],[23.58531,54.145],[23.57987,54.1486],[23.57706,54.17522],[23.58291,54.17777],[23.58366,54.18086],[23.57101,54.17168],[23.57396,54.15073]],[[23.60033,54.45242],[23.59574,54.45205],[23.61189,54.45048],[23.61754,54.45424],[23.61469,54.45846],[23.63866,54.4573],[23.64192,54.46231],[23.65371,54.46283],[23.6591,54.47813],[23.65053,54.48978],[23.61804,54.4806],[23.61341,54.46907],[23.59707,54.45489],[23.60033,54.45242]],[[23.67527,54.0829],[23.65929,54.07727],[23.67707,54.07873],[23.68267,54.08284],[23.7019,54.07798],[23.68845,54.06665],[23.67703,54.03466],[23.70549,54.07902],[23.70423,54.08858],[23.69966,54.0816],[23.68524,54.08611],[23.69795,54.10035],[23.68522,54.09724],[23.68344,54.10027],[23.67617,54.10057],[23.6831,54.09738],[23.67382,54.0961],[23.67527,54.0829]],[[23.95964,54.20564],[23.94603,54.1887],[23.94632,54.18738],[23.9596,54.17797],[23.96953,54.17365],[23.97774,54.17355],[23.98777,54.1656],[24.00405,54.16589],[24.00692,54.16688],[24.00954,54.16836],[24.0164,54.18218],[24.04793,54.17413],[24.06999,54.18499],[24.07963,54.18276],[24.09196,54.17102],[24.10822,54.16225],[24.12533,54.15945],[24.15398,54.15959],[24.16321,54.16139],[24.17956,54.15686],[24.17491,54.14146],[24.16571,54.13752],[24.17538,54.14],[24.18519,54.15385],[24.18507,54.15645],[24.17,54.1648],[24.16615,54.16443],[24.16354,54.16238],[24.15176,54.16028],[24.10874,54.16295],[24.08012,54.18397],[24.07072,54.18601],[24.04516,54.17514],[24.01486,54.18282],[24.00883,54.16933],[23.98982,54.16707],[23.97937,54.17534],[23.961,54.17847],[23.95079,54.19151],[23.96162,54.20588],[23.97192,54.24925],[24.00149,54.26505],[24.00114,54.27893],[23.99046,54.2998],[24.00421,54.30456],[24.03239,54.30354],[24.04029,54.30865],[24.04054,54.312],[24.02715,54.31888],[24.03433,54.33345],[24.0356,54.34614],[24.03236,54.35469],[24.02888,54.35947],[24.01488,54.36529],[24.00901,54.37429],[24.01533,54.37764],[24.02851,54.37707],[24.07202,54.35924],[24.08626,54.3596],[24.09525,54.37046],[24.09049,54.38758],[24.07822,54.39593],[24.06109,54.39915],[24.04881,54.40603],[24.04843,54.41364],[24.04165,54.42119],[24.05077,54.42949],[24.06807,54.43337],[24.07469,54.44157],[24.07172,54.44702],[24.05611,54.45713],[24.05891,54.46623],[24.05814,54.48143],[24.04966,54.50618],[24.05724,54.51257],[24.0708,54.51101],[24.09207,54.51323],[24.09798,54.516],[24.10145,54.51939],[24.10456,54.53101],[24.10014,54.54071],[24.08563,54.55135],[24.06649,54.55513],[24.0304,54.55144],[24.01297,54.5463],[23.99062,54.51638],[23.99442,54.51238],[24.0099,54.51146],[24.01109,54.50527],[24.00582,54.49873],[23.98292,54.49126],[23.95395,54.49932],[23.92756,54.51732],[23.88663,54.53346],[23.89163,54.54091],[23.91795,54.55192],[23.95737,54.56069],[23.98299,54.57573],[23.98816,54.58786],[24.00966,54.58567],[24.01642,54.5901],[24.01708,54.59571],[24.00783,54.6039],[23.98498,54.60451],[23.96296,54.61903],[23.9518,54.62968],[23.96067,54.64043],[23.97842,54.64654],[23.99213,54.64431],[24.01205,54.61771],[24.03572,54.61043],[24.03674,54.59566],[24.05054,54.59478],[24.06728,54.60339],[24.06996,54.6118],[24.06311,54.61746],[24.07788,54.64846],[24.12097,54.65328],[24.13654,54.66303],[24.13206,54.67633],[24.09499,54.68273],[24.08439,54.69504],[24.10351,54.72679],[24.10521,54.72479],[24.10616,54.72747],[24.1072,54.72685],[24.10705,54.72631],[24.10805,54.72508],[24.1086,54.72485],[24.10939,54.73199],[24.13154,54.74466],[24.14031,54.7599],[24.15129,54.76571],[24.14941,54.76205],[24.15527,54.76431],[24.14227,54.78716],[24.13657,54.80413],[24.13956,54.80959],[24.13849,54.80672],[24.14335,54.80979],[24.15933,54.80888],[24.21611,54.79632],[24.23542,54.80296],[24.24788,54.79988],[24.24136,54.80551],[24.25878,54.82562],[24.24872,54.81908],[24.23653,54.8295],[24.21236,54.83605],[24.22075,54.83938],[24.2191,54.85723],[24.19902,54.85852],[24.19654,54.86051],[24.19887,54.86252],[24.19922,54.86522],[24.19791,54.86566],[24.19228,54.8584],[24.16856,54.87121],[24.14599,54.87219],[24.15067,54.8904],[24.12742,54.89698],[24.12817,54.90207],[24.12587,54.89778],[24.11554,54.89738],[24.0987,54.91167],[24.08705,54.91445],[24.06476,54.9094],[24.05518,54.90036],[24.02268,54.89303],[24.0282,54.8857],[24.02299,54.88639],[24.02529,54.8731],[24.0112,54.87876],[24.00806,54.87447],[23.99474,54.87201],[23.99992,54.86674],[24.02022,54.85622],[24.03521,54.85681],[24.04902,54.87177],[24.05268,54.87099],[24.05368,54.87115],[24.05003,54.87859],[24.07758,54.89025],[24.0889,54.893],[24.10397,54.88579],[24.1225,54.88642],[24.12867,54.88483],[24.1306,54.87717],[24.11546,54.86143],[24.1189,54.84778],[24.1353,54.84659],[24.15078,54.85601],[24.15322,54.84672],[24.16728,54.84088],[24.192,54.84606],[24.20267,54.82936],[24.22122,54.81931],[24.21865,54.80909],[24.23223,54.80771],[24.22068,54.8037],[24.1977,54.80536],[24.16293,54.81798],[24.1483,54.81764],[24.13388,54.81188],[24.12942,54.79765],[24.14671,54.76903],[24.13469,54.76191],[24.12695,54.74678],[24.11553,54.74324],[24.12054,54.74417],[24.09408,54.72635],[24.09073,54.71188],[24.07508,54.69873],[24.08015,54.69967],[24.0866,54.68371],[24.09495,54.67884],[24.12406,54.67556],[24.13358,54.66342],[24.10942,54.65421],[24.07545,54.64949],[24.06013,54.61874],[24.0641,54.60352],[24.0449,54.59589],[24.03923,54.59732],[24.03932,54.61215],[24.01527,54.61853],[23.99508,54.64607],[23.98156,54.64854],[23.97322,54.6475],[23.95904,54.64289],[23.94988,54.62774],[23.97603,54.6065],[23.98857,54.60198],[24.00524,54.60295],[24.01494,54.59151],[24.01025,54.58719],[23.99729,54.59033],[23.9863,54.58861],[23.97873,54.57435],[23.95593,54.56179],[23.91613,54.55305],[23.89117,54.54245],[23.88515,54.53588],[23.886,54.53133],[23.92454,54.51653],[23.94948,54.49905],[23.98184,54.48996],[24.00734,54.49808],[24.01301,54.50496],[24.01114,54.51227],[23.99299,54.5153],[24.01546,54.54593],[24.05099,54.55311],[24.07584,54.55259],[24.0966,54.54172],[24.10219,54.53139],[24.09388,54.5149],[24.05694,54.5135],[24.04878,54.50775],[24.05683,54.48088],[24.0545,54.45697],[24.07307,54.44144],[24.06506,54.43327],[24.04497,54.42819],[24.0401,54.42148],[24.04934,54.40387],[24.0609,54.39792],[24.0784,54.39423],[24.08952,54.38651],[24.08908,54.3775],[24.0931,54.36977],[24.0852,54.36064],[24.07145,54.36013],[24.03145,54.37756],[24.01439,54.37856],[24.00732,54.37482],[24.01115,54.36589],[24.01697,54.36209],[24.02885,54.35771],[24.03081,54.35426],[24.03271,54.33356],[24.02579,54.3175],[24.03917,54.31025],[24.03234,54.30457],[24.00444,54.30574],[23.98804,54.30007],[23.99905,54.26529],[23.97003,54.24957],[23.96272,54.23578],[23.96218,54.22361],[23.96338,54.21811],[23.95965,54.21323],[23.95914,54.20908],[23.95964,54.20564]],[[23.81787,54.20915],[23.81087,54.20436],[23.82637,54.18793],[23.83253,54.18612],[23.85239,54.19372],[23.857,54.20185],[23.84081,54.207],[23.83733,54.21259],[23.82859,54.20617],[23.81787,54.20915]],[[23.66644,54.32506],[23.65032,54.31867],[23.68352,54.26873],[23.70359,54.26109],[23.72655,54.2678],[23.73968,54.2776],[23.73642,54.28895],[23.69849,54.31067],[23.66887,54.3341],[23.66644,54.32506]],[[23.83058,54.31799],[23.81612,54.29568],[23.82383,54.2917],[23.82395,54.28356],[23.83607,54.27699],[23.84415,54.29005],[23.83845,54.31876],[23.83058,54.31799]],[[23.75246,54.32258],[23.7392,54.31703],[23.74157,54.30711],[23.74921,54.30479],[23.74693,54.29403],[23.76758,54.28602],[23.77423,54.2728],[23.79086,54.27106],[23.80229,54.27812],[23.80509,54.28568],[23.79763,54.29576],[23.76414,54.31497],[23.75415,54.32755],[23.74859,54.32721],[23.75246,54.32258]],[[23.63847,55.78001],[23.63745,55.77598],[23.64412,55.77354],[23.65027,55.77705],[23.66447,55.77347],[23.65345,55.7809],[23.67391,55.78188],[23.6843,55.7782],[23.66789,55.79317],[23.6774,55.80297],[23.66608,55.80192],[23.65759,55.79301],[23.65672,55.78754],[23.66416,55.78948],[23.66762,55.78594],[23.65052,55.78658],[23.64897,55.78243],[23.64165,55.78368],[23.64759,55.78095],[23.63847,55.78001]],[[24.30462,54.12233],[24.30402,54.11959],[24.30743,54.12473],[24.316,54.12616],[24.31937,54.13058],[24.31629,54.13472],[24.30923,54.13742],[24.30901,54.1402],[24.32349,54.14308],[24.32477,54.14388],[24.326,54.14701],[24.32547,54.15078],[24.32201,54.1574],[24.33621,54.16332],[24.33693,54.17043],[24.33496,54.17247],[24.3378,54.17292],[24.34124,54.17589],[24.35243,54.17609],[24.36519,54.18041],[24.3665,54.18499],[24.36896,54.18547],[24.37083,54.18699],[24.37262,54.19021],[24.37337,54.18993],[24.37385,54.18805],[24.37483,54.1874],[24.37979,54.18873],[24.382,54.19014],[24.38575,54.18899],[24.39183,54.19138],[24.39499,54.18957],[24.39606,54.18944],[24.39636,54.18951],[24.39695,54.1899],[24.39765,54.19058],[24.39781,54.19223],[24.39695,54.19668],[24.39513,54.20123],[24.3935,54.20275],[24.39842,54.20199],[24.40207,54.20491],[24.40381,54.20373],[24.40766,54.20318],[24.41929,54.2063],[24.42236,54.20967],[24.42229,54.21633],[24.431,54.217],[24.43823,54.21937],[24.44666,54.22795],[24.46525,54.22873],[24.47546,54.23307],[24.48237,54.23085],[24.48837,54.23127],[24.49106,54.23366],[24.49284,54.23284],[24.49912,54.23134],[24.5152,54.23133],[24.51654,54.23213],[24.51491,54.23333],[24.51687,54.23402],[24.5186,54.23563],[24.52176,54.23452],[24.52839,54.23749],[24.53018,54.23971],[24.53272,54.23867],[24.53727,54.23909],[24.53774,54.24208],[24.53883,54.24201],[24.53837,54.24095],[24.53943,54.23984],[24.54265,54.24088],[24.54241,54.24176],[24.53921,54.24295],[24.54047,54.24393],[24.542,54.24313],[24.54488,54.2429],[24.54566,54.24339],[24.54594,54.24468],[24.55009,54.2446],[24.55251,54.24504],[24.5553,54.2466],[24.55787,54.24426],[24.55866,54.24416],[24.56152,54.2456],[24.56015,54.24767],[24.56183,54.24668],[24.56529,54.24732],[24.56603,54.24562],[24.56718,54.24529],[24.56834,54.24537],[24.57009,54.2482],[24.568,54.25166],[24.56854,54.25354],[24.56768,54.25483],[24.56977,54.25628],[24.56926,54.25779],[24.57117,54.25898],[24.57136,54.26055],[24.57569,54.26051],[24.58366,54.26283],[24.58487,54.26479],[24.58687,54.26458],[24.58798,54.26499],[24.58797,54.26859],[24.58699,54.27263],[24.59027,54.27414],[24.59037,54.27614],[24.58918,54.27767],[24.59865,54.27627],[24.6027,54.27696],[24.60556,54.27799],[24.6097,54.27705],[24.61226,54.27768],[24.61242,54.2783],[24.6093,54.2807],[24.61489,54.28029],[24.61548,54.28314],[24.61459,54.28376],[24.61023,54.28371],[24.60859,54.28489],[24.61124,54.28656],[24.61444,54.29022],[24.62688,54.28682],[24.62761,54.2871],[24.62877,54.2907],[24.63061,54.2885],[24.63595,54.28834],[24.63596,54.28869],[24.63452,54.28931],[24.63566,54.29056],[24.63431,54.29172],[24.63844,54.29203],[24.63971,54.29317],[24.62855,54.30543],[24.63106,54.30478],[24.63332,54.30468],[24.63352,54.30712],[24.63618,54.30526],[24.64268,54.303],[24.64115,54.30129],[24.64202,54.30072],[24.64687,54.30079],[24.64912,54.3025],[24.65185,54.30203],[24.65127,54.29966],[24.65207,54.29856],[24.65303,54.29829],[24.65888,54.30253],[24.65885,54.3056],[24.66178,54.30608],[24.66258,54.30669],[24.66483,54.31032],[24.6632,54.31224],[24.6721,54.30753],[24.67582,54.30692],[24.67813,54.30799],[24.67869,54.30443],[24.68458,54.30395],[24.68575,54.3058],[24.68356,54.30674],[24.68592,54.30883],[24.69349,54.30711],[24.70378,54.30985],[24.68628,54.30918],[24.68401,54.30778],[24.68321,54.30689],[24.68388,54.30458],[24.67878,54.30481],[24.67849,54.30803],[24.66345,54.31251],[24.66181,54.31138],[24.66226,54.30663],[24.65852,54.30576],[24.65275,54.2985],[24.65209,54.30221],[24.64903,54.30267],[24.64203,54.30092],[24.64278,54.30321],[24.63406,54.30723],[24.63317,54.3073],[24.63261,54.30693],[24.63301,54.30479],[24.62841,54.30569],[24.62975,54.29905],[24.63925,54.29322],[24.63405,54.29181],[24.63411,54.28933],[24.63563,54.28842],[24.62871,54.2909],[24.62687,54.28701],[24.61449,54.29044],[24.60807,54.28487],[24.60926,54.28367],[24.61505,54.28308],[24.60883,54.28083],[24.60886,54.28046],[24.60972,54.27959],[24.612,54.27819],[24.61188,54.27774],[24.60563,54.2782],[24.59879,54.2765],[24.58876,54.27785],[24.58664,54.27257],[24.58792,54.26535],[24.58481,54.265],[24.5759,54.26078],[24.57084,54.26056],[24.56731,54.25458],[24.56804,54.24548],[24.56545,54.2475],[24.55997,54.24786],[24.55848,54.24436],[24.5555,54.24682],[24.54077,54.24421],[24.53887,54.24289],[24.54219,54.24106],[24.53936,54.24016],[24.53944,54.24201],[24.53768,54.24231],[24.53679,54.23919],[24.53006,54.23992],[24.51824,54.23573],[24.51474,54.23365],[24.51456,54.23158],[24.49106,54.23383],[24.48248,54.2311],[24.47547,54.23328],[24.46525,54.22903],[24.44614,54.22808],[24.43802,54.21959],[24.42148,54.2162],[24.41877,54.2065],[24.40739,54.2035],[24.40142,54.20528],[24.39308,54.20302],[24.39617,54.19018],[24.39131,54.19164],[24.38205,54.19051],[24.37492,54.18761],[24.37376,54.19003],[24.37212,54.19043],[24.36594,54.18477],[24.36493,54.18068],[24.34055,54.17615],[24.33457,54.17267],[24.33607,54.16366],[24.32162,54.15744],[24.324,54.14373],[24.31059,54.14126],[24.30915,54.14078],[24.30815,54.13954],[24.30869,54.13744],[24.31098,54.13569],[24.31619,54.1343],[24.31865,54.13029],[24.31556,54.12626],[24.30868,54.12586],[24.30462,54.12233]],[[24.39325,54.35183],[24.40561,54.34888],[24.40048,54.33484],[24.4055,54.33906],[24.41031,54.33758],[24.40658,54.34439],[24.41055,54.34555],[24.40392,54.35099],[24.38042,54.35395],[24.36331,54.36787],[24.34491,54.36474],[24.36119,54.365],[24.35678,54.36364],[24.36051,54.36066],[24.37809,54.35533],[24.37644,54.35309],[24.37664,54.35084],[24.3863,54.34917],[24.38621,54.34041],[24.36662,54.33417],[24.36434,54.34393],[24.34812,54.35022],[24.34085,54.3585],[24.33604,54.35557],[24.34692,54.33285],[24.34261,54.32789],[24.34537,54.32812],[24.35024,54.33867],[24.3609,54.32592],[24.38092,54.32121],[24.38188,54.30891],[24.38714,54.30919],[24.40506,54.33172],[24.40071,54.33323],[24.39026,54.32484],[24.37519,54.33308],[24.39235,54.34112],[24.39325,54.35183]],[[24.64863,54.76025],[24.65474,54.75515],[24.64953,54.74071],[24.65544,54.73305],[24.67506,54.73659],[24.67417,54.72838],[24.66881,54.72933],[24.666,54.72679],[24.67375,54.71637],[24.66347,54.71429],[24.66044,54.70946],[24.66362,54.70707],[24.65145,54.70138],[24.65773,54.69913],[24.6644,54.70593],[24.66352,54.70986],[24.67374,54.71308],[24.67462,54.72165],[24.67267,54.72287],[24.67973,54.72295],[24.67613,54.72846],[24.68221,54.7256],[24.6848,54.72789],[24.67795,54.74002],[24.68518,54.73939],[24.69602,54.75878],[24.6901,54.76238],[24.69695,54.76368],[24.69084,54.77168],[24.67419,54.77816],[24.67806,54.78243],[24.67611,54.78445],[24.65299,54.78037],[24.65831,54.77415],[24.65072,54.77255],[24.6503,54.76855],[24.65136,54.7725],[24.65845,54.77234],[24.65869,54.77194],[24.65148,54.77164],[24.65522,54.76412],[24.64863,54.76025]],[[24.93927,54.64697],[24.94268,54.63944],[24.93602,54.63071],[24.94532,54.62958],[24.94947,54.63809],[24.93869,54.64803],[24.94054,54.6542],[24.95151,54.65129],[24.96448,54.65728],[24.962,54.66073],[24.96945,54.66125],[24.97728,54.65752],[24.98394,54.6603],[24.98309,54.66204],[24.98731,54.65908],[24.99408,54.65722],[24.99562,54.65777],[24.98148,54.67545],[24.98205,54.66899],[24.97509,54.67131],[24.97212,54.66763],[24.95583,54.66576],[24.95667,54.66031],[24.94609,54.65859],[24.94935,54.6541],[24.94098,54.66134],[24.94087,54.66862],[24.93345,54.67161],[24.93145,54.66698],[24.91763,54.66734],[24.9145,54.67228],[24.91239,54.66336],[24.92686,54.65012],[24.92361,54.64098],[24.92879,54.63234],[24.93375,54.63383],[24.92762,54.64306],[24.93366,54.64527],[24.92712,54.65005],[24.93927,54.64697]],[[24.81077,54.76591],[24.80467,54.74886],[24.81716,54.74366],[24.8264,54.74488],[24.83408,54.75163],[24.81822,54.76813],[24.81077,54.76591]],[[25.24829,55.49636],[25.26253,55.49623],[25.26201,55.49097],[25.25516,55.49059],[25.25805,55.48639],[25.267,55.49017],[25.28304,55.48929],[25.28498,55.49334],[25.30221,55.48416],[25.30717,55.48521],[25.29783,55.49609],[25.30799,55.50342],[25.29199,55.52631],[25.27977,55.52784],[25.27645,55.52188],[25.28301,55.52019],[25.27274,55.51832],[25.27739,55.51347],[25.27221,55.51453],[25.26224,55.51071],[25.25456,55.5124],[25.26279,55.50747],[25.25897,55.5073],[25.2605,55.50329],[25.26805,55.50447],[25.24829,55.49636]],[[24.97225,55.86978],[24.96794,55.85077],[24.97531,55.84991],[24.98215,55.85356],[24.98236,55.85933],[24.97889,55.86128],[24.98781,55.88028],[25.0155,55.90433],[25.02825,55.91023],[25.03706,55.91122],[25.05185,55.91624],[25.05388,55.91795],[25.04999,55.91638],[25.04791,55.91691],[25.05344,55.91939],[25.05462,55.92128],[25.05394,55.92157],[25.03087,55.91251],[25.04633,55.94466],[25.07335,55.97987],[25.08177,55.98105],[25.06809,55.9792],[25.07018,55.99209],[25.06534,56.00674],[25.06879,56.01157],[25.0638,56.00643],[25.06481,55.98527],[25.05468,55.98935],[25.068,55.97896],[25.03978,55.94344],[25.03348,55.92374],[24.9872,55.88841],[24.97225,55.86978]],[[25.38791,55.0695],[25.38645,55.06694],[25.40007,55.06499],[25.4044,55.06974],[25.41923,55.0686],[25.45786,55.05034],[25.46917,55.05134],[25.49086,55.04315],[25.47653,55.03927],[25.43017,55.03835],[25.42101,55.03345],[25.48366,55.03822],[25.49432,55.04074],[25.49644,55.04314],[25.50666,55.04],[25.52691,55.04046],[25.56066,55.01502],[25.58638,55.00977],[25.59637,54.99418],[25.6336,54.98768],[25.62765,54.98279],[25.63091,54.97884],[25.64437,54.98081],[25.63672,54.98401],[25.6377,54.99378],[25.61824,54.99396],[25.62313,54.99608],[25.61543,54.9995],[25.61409,55.00812],[25.59388,55.0127],[25.61291,55.00477],[25.61423,54.998],[25.60111,54.99694],[25.59195,55.0098],[25.54683,55.02743],[25.54615,55.03357],[25.5338,55.03654],[25.52552,55.04385],[25.48362,55.04637],[25.47519,55.05334],[25.46081,55.05251],[25.44417,55.05737],[25.43949,55.06144],[25.44577,55.06237],[25.4485,55.05819],[25.44598,55.06293],[25.41629,55.07137],[25.39921,55.06939],[25.39704,55.06698],[25.38791,55.0695]],[[25.48155,55.14853],[25.49086,55.14413],[25.50788,55.14356],[25.54148,55.1584],[25.55982,55.15296],[25.5695,55.15358],[25.57294,55.1566],[25.54333,55.1611],[25.52167,55.15448],[25.53182,55.16144],[25.52662,55.16586],[25.53653,55.16678],[25.52719,55.17031],[25.5081,55.16553],[25.4991,55.1562],[25.48155,55.14853]],[[25.43558,55.17483],[25.43312,55.17077],[25.47578,55.18751],[25.48008,55.19427],[25.46547,55.20389],[25.45521,55.20121],[25.46451,55.19833],[25.46341,55.19182],[25.45152,55.19351],[25.45682,55.19372],[25.45594,55.19738],[25.44039,55.19918],[25.45039,55.19163],[25.44842,55.1845],[25.45989,55.18495],[25.43558,55.17483]],[[25.45776,55.22638],[25.45469,55.2241],[25.4666,55.21941],[25.46048,55.21224],[25.4948,55.21492],[25.49469,55.22097],[25.50101,55.21842],[25.52365,55.2207],[25.5333,55.2265],[25.5484,55.22433],[25.53227,55.23479],[25.48676,55.22081],[25.46958,55.22485],[25.46557,55.23136],[25.45761,55.22992],[25.46711,55.22794],[25.46928,55.22351],[25.45776,55.22638]],[[25.35676,55.81469],[25.35927,55.8113],[25.36821,55.81787],[25.37662,55.8164],[25.37817,55.81116],[25.36033,55.81137],[25.35853,55.80793],[25.38424,55.80262],[25.39155,55.79428],[25.39044,55.79947],[25.4003,55.79481],[25.41329,55.79344],[25.43154,55.78682],[25.43831,55.78666],[25.41788,55.7963],[25.39913,55.79864],[25.38849,55.80524],[25.38052,55.81868],[25.37703,55.8164],[25.37634,55.81909],[25.36688,55.81896],[25.35676,55.81469]],[[25.65541,55.05828],[25.6652,55.04075],[25.67415,55.04301],[25.68439,55.04072],[25.68761,55.04408],[25.67604,55.05102],[25.67372,55.06316],[25.6822,55.08272],[25.68909,55.08341],[25.68904,55.08622],[25.67922,55.08278],[25.67779,55.07562],[25.66713,55.07314],[25.65541,55.05828]],[[25.59988,55.1775],[25.60259,55.17241],[25.61418,55.16841],[25.64126,55.17299],[25.63377,55.1889],[25.61607,55.19349],[25.60433,55.19241],[25.60107,55.18182],[25.61042,55.17975],[25.59988,55.1775]],[[25.60897,55.21032],[25.61126,55.20477],[25.63865,55.19459],[25.63914,55.18756],[25.64581,55.18765],[25.65915,55.17808],[25.67862,55.17595],[25.68352,55.16993],[25.68256,55.17821],[25.66196,55.18329],[25.65559,55.18271],[25.65103,55.18796],[25.65432,55.1905],[25.64818,55.20325],[25.65337,55.21288],[25.63225,55.21432],[25.63405,55.21727],[25.61899,55.21863],[25.61763,55.22207],[25.58629,55.22028],[25.57382,55.21284],[25.5496,55.22052],[25.55182,55.21587],[25.533,55.21363],[25.52665,55.20704],[25.55268,55.21199],[25.57563,55.20559],[25.58338,55.20914],[25.57843,55.21175],[25.5955,55.21372],[25.60432,55.21082],[25.63365,55.21123],[25.64859,55.20084],[25.62169,55.2096],[25.61404,55.2054],[25.61612,55.20948],[25.60897,55.21032]],[[25.55286,55.25594],[25.56301,55.24208],[25.58674,55.24214],[25.58877,55.24698],[25.60323,55.25006],[25.60332,55.25785],[25.61281,55.25887],[25.63453,55.25556],[25.63495,55.25115],[25.64167,55.24985],[25.64691,55.25131],[25.64272,55.25475],[25.65018,55.25517],[25.65284,55.23956],[25.67221,55.2432],[25.66299,55.25675],[25.64561,55.25968],[25.64803,55.26268],[25.63353,55.26308],[25.6262,55.25866],[25.60741,55.26449],[25.59842,55.26161],[25.58131,55.26568],[25.57906,55.26315],[25.58486,55.26242],[25.57804,55.24662],[25.57588,55.25656],[25.56674,55.25635],[25.56369,55.2527],[25.57255,55.25084],[25.56596,55.25013],[25.55286,55.25594]],[[25.70935,55.32774],[25.72401,55.31584],[25.71499,55.31286],[25.71379,55.30271],[25.725,55.3025],[25.72652,55.30454],[25.7296,55.30204],[25.71684,55.29564],[25.7223,55.28995],[25.70791,55.28796],[25.691,55.29623],[25.67254,55.29593],[25.66456,55.29336],[25.67661,55.2939],[25.65381,55.28936],[25.65218,55.28584],[25.66534,55.28679],[25.6884,55.29364],[25.70115,55.28685],[25.72225,55.28818],[25.72979,55.2944],[25.72342,55.29562],[25.73767,55.30723],[25.74332,55.30668],[25.73581,55.29896],[25.75743,55.30713],[25.76536,55.31606],[25.77775,55.317],[25.81087,55.33201],[25.81286,55.3266],[25.82419,55.32764],[25.82697,55.32362],[25.83138,55.32597],[25.81181,55.3346],[25.77954,55.32169],[25.76323,55.31943],[25.75287,55.30839],[25.74057,55.31041],[25.71954,55.30432],[25.7163,55.30734],[25.72197,55.30724],[25.72377,55.31465],[25.73283,55.31492],[25.72671,55.32375],[25.73501,55.31719],[25.74277,55.31799],[25.73941,55.33053],[25.73082,55.33792],[25.72589,55.3257],[25.70935,55.32774]],[[25.68403,55.60428],[25.66873,55.59336],[25.68719,55.5845],[25.6961,55.5874],[25.69963,55.58428],[25.70778,55.58334],[25.69975,55.5869],[25.70849,55.58907],[25.70172,55.59462],[25.71927,55.60692],[25.71593,55.61205],[25.7257,55.61632],[25.69789,55.63132],[25.70099,55.63554],[25.68567,55.63276],[25.67883,55.62927],[25.67418,55.62341],[25.69532,55.60538],[25.68403,55.60428]],[[26.06183,55.23841],[26.05869,55.23276],[26.09361,55.23488],[26.10181,55.25192],[26.09545,55.25991],[26.1018,55.26933],[26.09667,55.27203],[26.08281,55.27059],[26.06201,55.25647],[26.06539,55.25325],[26.05571,55.24432],[26.06125,55.24094],[26.05673,55.23861],[26.06183,55.23841]],[[25.99038,55.24158],[25.99231,55.23652],[26.00015,55.24177],[26.00904,55.26183],[26.03442,55.2653],[26.04912,55.27132],[26.04994,55.27515],[26.06181,55.27907],[26.06962,55.29266],[26.08114,55.29104],[26.08719,55.29206],[26.0606,55.29635],[26.06202,55.30898],[26.05592,55.29465],[26.06402,55.29407],[26.06106,55.29116],[26.04685,55.29911],[26.04199,55.29379],[26.01964,55.28655],[26.05698,55.28943],[26.0572,55.28084],[26.03796,55.26858],[26.00771,55.26263],[25.99038,55.24158]],[[26.05733,55.32239],[26.05927,55.30998],[26.06954,55.3266],[26.09799,55.3273],[26.10531,55.3316],[26.07878,55.33491],[26.06111,55.34687],[26.04687,55.34981],[26.05526,55.3544],[26.06507,55.34934],[26.06275,55.35484],[26.06041,55.35748],[26.06213,55.35448],[26.04499,55.35905],[26.02594,55.35204],[26.01828,55.35892],[25.99973,55.36627],[25.99769,55.37235],[25.98643,55.37482],[25.99482,55.36334],[26.01834,55.3574],[26.01621,55.3542],[26.00713,55.35454],[26.00795,55.35163],[26.01934,55.34734],[26.02901,55.35085],[26.02824,55.34614],[26.05735,55.34528],[26.07488,55.33546],[26.05541,55.34001],[26.03387,55.33883],[26.04464,55.33074],[26.07446,55.32808],[26.06586,55.32735],[26.05733,55.32239]],[[26.06665,55.35727],[26.0708,55.35012],[26.07909,55.3474],[26.08529,55.34979],[26.08166,55.35153],[26.08683,55.35097],[26.08539,55.34799],[26.09326,55.34613],[26.0881,55.34909],[26.09946,55.35082],[26.09595,55.35532],[26.10232,55.35355],[26.10102,55.35897],[26.10955,55.36172],[26.10406,55.36478],[26.10465,55.37194],[26.1174,55.36243],[26.12069,55.36466],[26.12257,55.364],[26.12228,55.35916],[26.12598,55.37142],[26.11513,55.37467],[26.10948,55.38203],[26.08124,55.38283],[26.07363,55.37799],[26.08703,55.38066],[26.09202,55.37497],[26.08759,55.36834],[26.09385,55.3664],[26.07773,55.36513],[26.07983,55.3539],[26.07276,55.35819],[26.07532,55.3538],[26.06665,55.35727]],[[26.00728,55.41484],[26.00284,55.41063],[26.02777,55.3961],[26.02349,55.39217],[26.03869,55.39482],[26.03899,55.39057],[26.04729,55.39068],[26.04578,55.39337],[26.05242,55.38965],[26.06373,55.38841],[26.05933,55.39727],[26.05186,55.39995],[26.03938,55.39797],[26.02445,55.41324],[26.00728,55.41484]],[[25.81718,55.44099],[25.82691,55.4398],[25.8455,55.44719],[25.88216,55.44713],[25.89474,55.43933],[25.89765,55.44385],[25.90382,55.44219],[25.90913,55.42908],[25.92071,55.42996],[25.9271,55.42208],[25.9351,55.42297],[25.90878,55.44746],[25.88941,55.45357],[25.8542,55.44927],[25.84416,55.45106],[25.81718,55.44099]],[[25.97621,55.60158],[25.97936,55.59723],[25.99459,55.5951],[26.00185,55.59853],[26.00788,55.59662],[26.00976,55.60005],[26.04634,55.6004],[26.05191,55.60613],[26.07478,55.60783],[26.07959,55.61042],[26.05626,55.6077],[26.05089,55.61008],[26.03595,55.60398],[26.04904,55.61056],[26.04902,55.61333],[26.05466,55.61389],[26.05072,55.61201],[26.05222,55.61063],[26.06209,55.6147],[26.05521,55.61401],[26.05778,55.61755],[26.05348,55.62],[26.04538,55.61983],[26.04026,55.61858],[26.04075,55.62115],[26.06568,55.62464],[26.06358,55.62164],[26.08009,55.61993],[26.0731,55.62286],[26.07274,55.62592],[26.07902,55.62591],[26.06765,55.63605],[26.05085,55.6426],[26.05286,55.64285],[26.05181,55.64467],[26.05672,55.64608],[26.05735,55.64707],[26.05718,55.64789],[26.04811,55.6429],[26.04529,55.64786],[26.04143,55.64885],[26.0473,55.64367],[26.03725,55.6415],[26.04128,55.63673],[26.04309,55.63752],[26.04383,55.63584],[26.0465,55.63612],[26.04921,55.64214],[26.05626,55.63781],[26.03215,55.62579],[26.03803,55.62727],[26.04147,55.62545],[26.03252,55.62332],[26.02189,55.62393],[26.0207,55.62342],[26.00675,55.64434],[25.9939,55.64357],[26.00815,55.64867],[25.99007,55.64523],[25.98801,55.64731],[25.98328,55.64656],[25.9865,55.6496],[25.98418,55.65237],[25.98409,55.64961],[25.96879,55.64973],[25.95211,55.64415],[25.90751,55.64983],[25.93154,55.64244],[25.95712,55.64098],[25.96283,55.64356],[25.9623,55.64065],[25.9722,55.64242],[25.96641,55.64298],[25.96979,55.64529],[25.97564,55.64106],[25.97769,55.64496],[25.98021,55.64144],[26.00491,55.64166],[25.9998,55.63854],[26.01057,55.63356],[25.99835,55.63471],[26.00234,55.63664],[25.99814,55.63858],[25.99696,55.63769],[25.99855,55.637],[25.99099,55.63568],[25.98969,55.63468],[25.98941,55.63364],[25.99965,55.63375],[26.00695,55.6293],[26.0026,55.62386],[26.01026,55.62245],[26.01062,55.61856],[26.03063,55.61834],[26.03218,55.61726],[26.01807,55.61747],[26.01588,55.61558],[26.00633,55.61943],[26.00012,55.61939],[26.00185,55.62326],[25.99191,55.63004],[25.97894,55.62801],[25.98279,55.6235],[25.99854,55.62025],[25.99738,55.61562],[26.00963,55.61704],[26.01697,55.61356],[26.01343,55.6122],[26.0205,55.61373],[26.01693,55.61626],[26.03159,55.61663],[26.03291,55.61346],[26.03832,55.61416],[26.02978,55.61192],[26.03062,55.61584],[26.02223,55.61464],[26.02094,55.6083],[26.02431,55.60729],[26.01186,55.60629],[26.02114,55.6013],[26.01069,55.60134],[26.00515,55.59953],[26.0011,55.60253],[25.99244,55.59866],[25.98561,55.60494],[25.98778,55.59792],[25.97895,55.60369],[25.97621,55.60158]],[[26.04551,55.77915],[26.03254,55.7749],[26.03518,55.76668],[26.05237,55.77038],[26.04308,55.76204],[26.03614,55.76327],[26.03857,55.75634],[26.05796,55.75628],[26.06245,55.75441],[26.05788,55.75212],[26.0743,55.74663],[26.06815,55.74361],[26.0753,55.74165],[26.07223,55.73218],[26.09365,55.72816],[26.09489,55.73829],[26.10095,55.73558],[26.10967,55.7375],[26.10526,55.74614],[26.11197,55.74394],[26.11348,55.73669],[26.11862,55.73492],[26.11688,55.73968],[26.12409,55.73612],[26.11321,55.74693],[26.11602,55.74975],[26.10483,55.75097],[26.11535,55.75249],[26.1079,55.75709],[26.11896,55.76056],[26.10919,55.76572],[26.10184,55.76556],[26.10404,55.75949],[26.09961,55.76298],[26.08168,55.76215],[26.08961,55.75256],[26.07915,55.75671],[26.07328,55.75416],[26.06509,55.75882],[26.07057,55.77125],[26.06518,55.77583],[26.04551,55.77915]],[[25.74375,55.84872],[25.74414,55.84264],[25.75818,55.83945],[25.75883,55.8326],[25.77199,55.82978],[25.77825,55.83558],[25.79051,55.83233],[25.80631,55.83454],[25.81466,55.8311],[25.82617,55.83341],[25.82941,55.81913],[25.81398,55.81275],[25.79417,55.81635],[25.775,55.82632],[25.78297,55.81748],[25.7692,55.81516],[25.77732,55.81348],[25.78806,55.81721],[25.81103,55.81013],[25.82004,55.81191],[25.82244,55.80736],[25.8243,55.81019],[25.83144,55.80654],[25.8248,55.80311],[25.83019,55.79782],[25.81569,55.78636],[25.81881,55.77373],[25.754,55.78513],[25.78395,55.77845],[25.79023,55.77359],[25.81687,55.77124],[25.81724,55.76423],[25.83092,55.75395],[25.82617,55.74429],[25.83427,55.74157],[25.83208,55.74594],[25.83775,55.74607],[25.84193,55.75199],[25.82246,55.77388],[25.83858,55.79879],[25.82485,55.81457],[25.83176,55.81623],[25.8363,55.81084],[25.8409,55.81227],[25.83649,55.81396],[25.84269,55.82177],[25.84042,55.83537],[25.8712,55.82708],[25.86739,55.83305],[25.86151,55.83082],[25.84328,55.83672],[25.862,55.8548],[25.83825,55.83941],[25.83121,55.84338],[25.83127,55.837],[25.81351,55.83341],[25.80951,55.83569],[25.78967,55.8347],[25.76093,55.83881],[25.74375,55.84872]],[[26.03699,55.80727],[26.02705,55.79825],[26.03573,55.80242],[26.04754,55.80048],[26.0617,55.80507],[26.05651,55.80968],[26.0637,55.81293],[26.06393,55.80881],[26.07633,55.81463],[26.07887,55.81161],[26.08687,55.81596],[26.08184,55.8152],[26.08433,55.81968],[26.09465,55.81796],[26.09901,55.82468],[26.12153,55.83053],[26.12646,55.83911],[26.12042,55.83385],[26.10967,55.8337],[26.10546,55.82847],[26.09936,55.82996],[26.10117,55.8277],[26.07989,55.82247],[26.079,55.81631],[26.06602,55.8176],[26.0573,55.81387],[26.05547,55.81897],[26.06898,55.82372],[26.06543,55.8344],[26.05127,55.8345],[26.05079,55.84003],[26.05883,55.84286],[26.04091,55.84728],[26.04217,55.84129],[26.05225,55.83181],[26.05551,55.83141],[26.05734,55.82613],[26.03702,55.81606],[26.03227,55.81069],[26.03699,55.80727]],[[26.33148,55.46257],[26.32824,55.45695],[26.35384,55.45829],[26.36273,55.4468],[26.37211,55.4507],[26.38149,55.44832],[26.39081,55.456],[26.38404,55.46409],[26.37322,55.46752],[26.36041,55.46427],[26.3449,55.47049],[26.33902,55.46276],[26.33148,55.46257]],[[26.26942,55.485],[26.25763,55.47524],[26.31132,55.46331],[26.32526,55.46552],[26.31615,55.47894],[26.32297,55.48789],[26.32982,55.48383],[26.34606,55.48639],[26.36513,55.48007],[26.3897,55.47776],[26.39415,55.46971],[26.40154,55.47207],[26.39931,55.47537],[26.40629,55.47576],[26.40783,55.48151],[26.40701,55.49223],[26.39147,55.50637],[26.39561,55.51147],[26.3916,55.51308],[26.37602,55.50071],[26.37812,55.49311],[26.35931,55.50199],[26.34636,55.49699],[26.33345,55.50421],[26.31479,55.50047],[26.31006,55.49629],[26.31681,55.49367],[26.31053,55.49159],[26.29626,55.50004],[26.26718,55.49467],[26.25861,55.49072],[26.26942,55.485]],[[26.14975,55.57734],[26.16321,55.57],[26.17693,55.5749],[26.17984,55.57212],[26.18484,55.57583],[26.18426,55.58057],[26.1963,55.57412],[26.19374,55.57898],[26.20049,55.5835],[26.21449,55.56032],[26.22562,55.56089],[26.22947,55.558],[26.24354,55.55331],[26.24638,55.55461],[26.22975,55.5589],[26.22151,55.56529],[26.22192,55.57167],[26.24956,55.57476],[26.24029,55.58153],[26.24772,55.58562],[26.24624,55.59125],[26.21518,55.59268],[26.1933,55.59907],[26.18357,55.59316],[26.18828,55.58991],[26.15964,55.58701],[26.16303,55.58305],[26.14975,55.57734]],[[26.28132,55.58511],[26.28901,55.57325],[26.29943,55.57451],[26.3103,55.56928],[26.32709,55.57087],[26.33553,55.57784],[26.30494,55.59046],[26.28132,55.58511]],[[26.28119,55.62093],[26.27433,55.60985],[26.27845,55.6117],[26.31471,55.60197],[26.32128,55.60525],[26.3134,55.61848],[26.29884,55.62222],[26.299,55.62556],[26.29606,55.6223],[26.28119,55.62093]],[[26.38165,55.62369],[26.38416,55.60354],[26.38966,55.60485],[26.39009,55.60183],[26.39621,55.61152],[26.40703,55.61536],[26.40591,55.61994],[26.39529,55.62135],[26.39563,55.6318],[26.40065,55.63157],[26.39524,55.63368],[26.39354,55.64542],[26.38736,55.64026],[26.39369,55.6349],[26.38962,55.6355],[26.38892,55.63061],[26.3799,55.63106],[26.39075,55.62545],[26.38165,55.62369]],[[26.21173,55.65203],[26.16637,55.63437],[26.17277,55.63171],[26.21092,55.63798],[26.22843,55.63446],[26.23161,55.6375],[26.22656,55.64108],[26.23368,55.64769],[26.2262,55.65715],[26.21817,55.65682],[26.21907,55.66371],[26.21026,55.66248],[26.2061,55.65754],[26.21173,55.65203]],[[26.21027,55.72555],[26.21786,55.71827],[26.22279,55.72297],[26.22839,55.71866],[26.2459,55.72436],[26.23748,55.73572],[26.24105,55.73926],[26.23513,55.73748],[26.2323,55.74245],[26.22148,55.73961],[26.21027,55.72555]]]]}}